{
"type": "FeatureCollection",
"name": "ZEE-200millas",
"crs": { "type": "name", "properties": { "name": "urn:ogc:def:crs:OGC:1.3:CRS84" } },
"features": [
{ "type": "Feature", "properties": { "id": null, "Name": "Object ID 15", "description": null, "timestamp": null, "begin": null, "end": null, "altitudeMode": null, "tessellate": -1, "extrude": 0, "visibility": -1, "drawOrder": null, "icon": null }, "geometry": { "type": "LineString", "coordinates": [ [ -54.950000762939453, -34.970001220703118, 0.0 ], [ -56.779998779296875, -36.290000915527337, 0.0 ], [ -55.860000610351562, -35.630001068115227, 0.0 ], [ -54.25, -37.110000610351555, 0.0 ], [ -53.909999847412109, -37.25, 0.0 ], [ -53.150001525878906, -37.610000610351555, 0.0 ], [ -52.709999084472656, -37.880001068115227, 0.0 ], [ -52.680000305175781, -37.900001525878899, 0.0 ], [ -52.720001220703125, -38.020000457763665, 0.0 ], [ -52.779998779296875, -38.13999938964843, 0.0 ], [ -52.840000152587891, -38.270000457763665, 0.0 ], [ -52.909999847412109, -38.380001068115227, 0.0 ], [ -52.990001678466797, -38.5, 0.0 ], [ -53.069999694824219, -38.610000610351555, 0.0 ], [ -53.159999847412109, -38.729999542236321, 0.0 ], [ -53.25, -38.83000183105468, 0.0 ], [ -53.310001373291016, -38.950000762939446, 0.0 ], [ -53.389999389648438, -39.069999694824212, 0.0 ], [ -53.470001220703125, -39.180000305175774, 0.0 ], [ -53.549999237060547, -39.290000915527337, 0.0 ], [ -53.610000610351562, -39.409999847412102, 0.0 ], [ -53.680000305175781, -39.529998779296868, 0.0 ], [ -53.75, -39.650001525878899, 0.0 ], [ -53.830001831054688, -39.759998321533196, 0.0 ], [ -53.909999847412109, -39.869998931884759, 0.0 ], [ -54.009998321533203, -39.979999542236321, 0.0 ], [ -54.099998474121094, -40.090000152587884, 0.0 ], [ -54.200000762939453, -40.189998626708977, 0.0 ], [ -54.310001373291016, -40.290000915527337, 0.0 ], [ -54.430000305175781, -40.38999938964843, 0.0 ], [ -54.569999694824219, -40.5, 0.0 ], [ -54.700000762939453, -40.599998474121087, 0.0 ], [ -54.840000152587891, -40.689998626708977, 0.0 ], [ -54.970001220703125, -40.779998779296868, 0.0 ], [ -55.099998474121094, -40.869998931884759, 0.0 ], [ -55.240001678466797, -40.950000762939446, 0.0 ], [ -55.380001068115234, -41.029998779296868, 0.0 ], [ -55.520000457763672, -41.099998474121087, 0.0 ], [ -55.669998168945312, -41.169998168945305, 0.0 ], [ -55.819999694824219, -41.24000167846679, 0.0 ], [ -55.979999542236328, -41.29999923706054, 0.0 ], [ -56.130001068115234, -41.349998474121087, 0.0 ], [ -56.299999237060547, -41.400001525878899, 0.0 ], [ -56.459999084472656, -41.450000762939446, 0.0 ], [ -56.590000152587891, -41.5, 0.0 ], [ -56.770000457763672, -41.58000183105468, 0.0 ], [ -56.959999084472656, -41.63999938964843, 0.0 ], [ -57.159999847412109, -41.700000762939446, 0.0 ], [ -57.349998474121094, -41.759998321533196, 0.0 ], [ -57.549999237060547, -41.810001373291009, 0.0 ], [ -57.75, -41.860000610351555, 0.0 ], [ -57.950000762939453, -41.909999847412102, 0.0 ], [ -58.029998779296875, -42.040000915527337, 0.0 ], [ -58.119998931884766, -42.169998168945305, 0.0 ], [ -58.220001220703125, -42.29999923706054, 0.0 ], [ -58.319999694824219, -42.419998168945305, 0.0 ], [ -58.439998626708984, -42.540000915527337, 0.0 ], [ -58.529998779296875, -42.659999847412102, 0.0 ], [ -58.639999389648438, -42.779998779296868, 0.0 ], [ -58.75, -42.900001525878899, 0.0 ], [ -58.869998931884766, -43.020000457763665, 0.0 ], [ -59.0, -43.119998931884759, 0.0 ], [ -59.119998931884766, -43.229999542236321, 0.0 ], [ -59.139999389648438, -43.360000610351555, 0.0 ], [ -59.169998168945312, -43.479999542236321, 0.0 ], [ -59.209999084472656, -43.610000610351555, 0.0 ], [ -59.259998321533203, -43.74000167846679, 0.0 ], [ -59.310001373291016, -43.860000610351555, 0.0 ], [ -59.360000610351562, -43.979999542236321, 0.0 ], [ -59.430000305175781, -44.099998474121087, 0.0 ], [ -59.5, -44.220001220703118, 0.0 ], [ -59.580001831054688, -44.340000152587884, 0.0 ], [ -59.659999847412109, -44.450000762939446, 0.0 ], [ -59.75, -44.560001373291009, 0.0 ], [ -59.849998474121094, -44.669998168945305, 0.0 ], [ -59.959999084472656, -44.779998779296868, 0.0 ], [ -60.069999694824219, -44.880001068115227, 0.0 ], [ -60.180000305175781, -44.979999542236321, 0.0 ], [ -60.299999237060547, -45.08000183105468, 0.0 ], [ -60.430000305175781, -45.169998168945305, 0.0 ], [ -60.549999237060547, -45.259998321533196, 0.0 ], [ -60.599998474121094, -45.400001525878899, 0.0 ], [ -60.659999847412109, -45.540000915527337, 0.0 ], [ -60.689998626708984, -45.669998168945305, 0.0 ], [ -60.720001220703125, -45.79999923706054, 0.0 ], [ -60.75, -45.939998626708977, 0.0 ], [ -60.799999237060547, -46.069999694824212, 0.0 ], [ -60.849998474121094, -46.200000762939446, 0.0 ], [ -60.889999389648438, -46.279998779296868, 0.0 ], [ -60.900001525878906, -46.709999084472649, 0.0 ], [ -60.900001525878906, -46.709999084472649, 0.0 ], [ -60.869998931884766, -46.840000152587884, 0.0 ], [ -60.840000152587891, -46.979999542236321, 0.0 ], [ -60.810001373291016, -47.13999938964843, 0.0 ], [ -60.799999237060547, -47.29999923706054, 0.0 ], [ -60.790000915527344, -47.459999084472649, 0.0 ], [ -60.75, -47.669998168945305, 0.0 ], [ -60.580001831054688, -47.680000305175774, 0.0 ], [ -60.389999389648438, -47.700000762939446, 0.0 ], [ -60.209999084472656, -47.720001220703118, 0.0 ], [ -60.099998474121094, -47.74000167846679, 0.0 ], [ -59.900001525878906, -47.759998321533196, 0.0 ], [ -59.689998626708984, -47.79999923706054, 0.0 ], [ -59.490001678466797, -47.840000152587884, 0.0 ], [ -59.459999084472656, -47.840000152587884, 0.0 ], [ -59.369998931884766, -47.849998474121087, 0.0 ], [ -59.169998168945312, -47.849998474121087, 0.0 ], [ -58.979999542236328, -47.849998474121087, 0.0 ], [ -58.779998779296875, -47.849998474121087, 0.0 ], [ -58.590000152587891, -47.860000610351555, 0.0 ], [ -58.389999389648438, -47.880001068115227, 0.0 ], [ -58.200000762939453, -47.88999938964843, 0.0 ], [ -58.009998321533203, -47.919998168945305, 0.0 ], [ -57.819999694824219, -47.950000762939446, 0.0 ], [ -57.630001068115234, -47.979999542236321, 0.0 ], [ -57.439998626708984, -48.020000457763672, 0.0 ], [ -57.169998168945312, -48.060001373291016, 0.0 ], [ -56.909999847412109, -48.110000610351562, 0.0 ], [ -56.729999542236328, -48.130001068115234, 0.0 ], [ -56.549999237060547, -48.169998168945312, 0.0 ], [ -56.360000610351562, -48.200000762939453, 0.0 ], [ -56.169998168945312, -48.240001678466797, 0.0 ], [ -55.990001678466797, -48.279998779296875, 0.0 ], [ -55.810001373291016, -48.330001831054688, 0.0 ], [ -55.630001068115234, -48.380001068115234, 0.0 ], [ -55.459999084472656, -48.439998626708984, 0.0 ], [ -55.290000915527344, -48.5, 0.0 ], [ -55.119998931884766, -48.569999694824219, 0.0 ], [ -54.950000762939453, -48.630001068115234, 0.0 ], [ -54.790000915527344, -48.709999084472656, 0.0 ], [ -54.630001068115234, -48.779998779296875, 0.0 ], [ -54.479999542236328, -48.869998931884766, 0.0 ], [ -54.330001831054688, -48.950000762939453, 0.0 ], [ -54.169998168945312, -49.040000915527344, 0.0 ], [ -54.020000457763672, -49.139999389648438, 0.0 ], [ -53.880001068115234, -49.240001678466797, 0.0 ], [ -53.740001678466797, -49.340000152587891, 0.0 ], [ -53.610000610351562, -49.450000762939453, 0.0 ], [ -53.479999542236328, -49.549999237060547, 0.0 ], [ -53.369998931884766, -49.650001525878906, 0.0 ], [ -53.259998321533203, -49.759998321533203, 0.0 ], [ -53.150001525878906, -49.860000610351562, 0.0 ], [ -53.049999237060547, -49.970001220703125, 0.0 ], [ -52.959999084472656, -50.080001831054688, 0.0 ], [ -52.869998931884766, -50.200000762939453, 0.0 ], [ -52.790000915527344, -50.310001373291016, 0.0 ], [ -52.709999084472656, -50.430000305175781, 0.0 ], [ -52.639999389648438, -50.549999237060547, 0.0 ], [ -52.580001831054688, -50.669998168945312, 0.0 ], [ -52.529998779296875, -50.799999237060547, 0.0 ], [ -52.479999542236328, -50.919998168945312, 0.0 ], [ -52.430000305175781, -51.049999237060547, 0.0 ], [ -52.389999389648438, -51.169998168945312, 0.0 ], [ -52.360000610351562, -51.299999237060547, 0.0 ], [ -52.330001831054688, -51.430000305175781, 0.0 ], [ -52.310001373291016, -51.569999694824219, 0.0 ], [ -52.299999237060547, -51.700000762939453, 0.0 ], [ -52.299999237060547, -51.830001831054688, 0.0 ], [ -52.310001373291016, -51.959999084472656, 0.0 ], [ -52.319999694824219, -52.090000152587891, 0.0 ], [ -52.340000152587891, -52.220001220703125, 0.0 ], [ -52.380001068115234, -52.349998474121094, 0.0 ], [ -52.419998168945312, -52.479999542236328, 0.0 ], [ -52.459999084472656, -52.610000610351562, 0.0 ], [ -52.520000457763672, -52.729999542236328, 0.0 ], [ -52.590000152587891, -52.860000610351562, 0.0 ], [ -52.659999847412109, -52.979999542236328, 0.0 ], [ -52.75, -53.099998474121094, 0.0 ], [ -52.840000152587891, -53.220001220703125, 0.0 ], [ -52.939998626708984, -53.340000152587891, 0.0 ], [ -53.040000915527344, -53.450000762939453, 0.0 ], [ -53.159999847412109, -53.560001373291016, 0.0 ], [ -53.290000915527344, -53.680000305175781, 0.0 ], [ -53.419998168945312, -53.790000915527344, 0.0 ], [ -53.560001373291016, -53.900001525878906, 0.0 ], [ -53.720001220703125, -54.009998321533203, 0.0 ], [ -53.880001068115234, -54.110000610351562, 0.0 ], [ -54.040000915527344, -54.200000762939453, 0.0 ], [ -54.119998931884766, -54.319999694824219, 0.0 ], [ -54.220001220703125, -54.439998626708984, 0.0 ], [ -54.319999694824219, -54.560001373291016, 0.0 ], [ -54.430000305175781, -54.669998168945312, 0.0 ], [ -54.549999237060547, -54.779998779296875, 0.0 ], [ -54.669998168945312, -54.889999389648438, 0.0 ], [ -54.810001373291016, -54.990001678466797, 0.0 ], [ -54.950000762939453, -55.090000152587891, 0.0 ], [ -55.099998474121094, -55.189998626708984, 0.0 ], [ -55.259998321533203, -55.279998779296875, 0.0 ], [ -55.419998168945312, -55.369998931884766, 0.0 ], [ -55.590000152587891, -55.459999084472656, 0.0 ], [ -55.770000457763672, -55.540000915527344, 0.0 ], [ -55.950000762939453, -55.619998931884766, 0.0 ], [ -56.139999389648438, -55.689998626708984, 0.0 ], [ -56.340000152587891, -55.759998321533203, 0.0 ], [ -56.540000915527344, -55.830001831054688, 0.0 ], [ -56.740001678466797, -55.889999389648438, 0.0 ], [ -56.950000762939453, -55.939998626708984, 0.0 ], [ -57.159999847412109, -55.990001678466797, 0.0 ], [ -57.380001068115234, -56.040000915527344, 0.0 ], [ -57.599998474121094, -56.080001831054688, 0.0 ], [ -57.830001831054688, -56.110000610351562, 0.0 ], [ -58.049999237060547, -56.139999389648438, 0.0 ], [ -58.279998779296875, -56.159999847412109, 0.0 ], [ -58.490001678466797, -56.180000305175781, 0.0 ], [ -58.599998474121094, -56.299999237060547, 0.0 ], [ -58.659999847412109, -56.380001068115234, 0.0 ], [ -58.770000457763672, -56.490001678466797, 0.0 ], [ -58.889999389648438, -56.599998474121094, 0.0 ], [ -59.009998321533203, -56.709999084472656, 0.0 ], [ -59.150001525878906, -56.819999694824219, 0.0 ], [ -59.290000915527344, -56.919998168945312, 0.0 ] ] } }
]
}
