{
"type": "FeatureCollection",
"name": "ZEE-50m",
"crs": { "type": "name", "properties": { "name": "urn:ogc:def:crs:OGC:1.3:CRS84" } },
"features": [
{ "type": "Feature", "properties": { "id": null, "Name": "Object ID 15", "description": null, "timestamp": null, "begin": null, "end": null, "altitudeMode": null, "tessellate": -1, "extrude": 0, "visibility": -1, "drawOrder": null, "icon": null }, "geometry": { "type": "LineString", "coordinates": [ [ -56.583000183105469, -36.165000915527337, 0.0 ], [ -56.549999237060547, -36.199001312255852, 0.0 ], [ -56.523998260498047, -36.220001220703118, 0.0 ], [ -56.506999969482422, -36.244998931884759, 0.0 ], [ -56.491001129150391, -36.269001007080071, 0.0 ], [ -56.4739990234375, -36.306999206542962, 0.0 ], [ -56.458999633789062, -36.351001739501946, 0.0 ], [ -56.445999145507812, -36.401000976562493, 0.0 ], [ -56.436000823974609, -36.423999786376946, 0.0 ], [ -56.437999725341797, -36.35200119018554, 0.0 ], [ -56.435001373291016, -36.358001708984368, 0.0 ], [ -56.430000305175781, -36.375, 0.0 ], [ -56.425998687744141, -36.381999969482415, 0.0 ], [ -56.425998687744141, -36.390998840332024, 0.0 ], [ -56.421001434326172, -36.404998779296868, 0.0 ], [ -56.421001434326172, -36.408000946044915, 0.0 ], [ -56.418998718261719, -36.416999816894524, 0.0 ], [ -56.416000366210938, -36.421001434326165, 0.0 ], [ -56.416000366210938, -36.423000335693352, 0.0 ], [ -56.415000915527344, -36.430999755859368, 0.0 ], [ -56.411998748779297, -36.438999176025384, 0.0 ], [ -56.41400146484375, -36.444999694824212, 0.0 ], [ -56.411998748779297, -36.453998565673821, 0.0 ], [ -56.409999847412109, -36.483001708984368, 0.0 ], [ -56.408000946044922, -36.513000488281243, 0.0 ], [ -56.409000396728516, -36.526000976562493, 0.0 ], [ -56.410999298095703, -36.546001434326165, 0.0 ], [ -56.407001495361328, -36.561000823974602, 0.0 ], [ -56.412998199462891, -36.583999633789055, 0.0 ], [ -56.408000946044922, -36.603000640869134, 0.0 ], [ -56.404998779296875, -36.631000518798821, 0.0 ], [ -56.402999877929688, -36.641998291015618, 0.0 ], [ -56.405998229980469, -36.64899826049804, 0.0 ], [ -56.400001525878906, -36.651000976562493, 0.0 ], [ -56.4010009765625, -36.657001495361321, 0.0 ], [ -56.400001525878906, -36.664001464843743, 0.0 ], [ -56.397998809814453, -36.668998718261712, 0.0 ], [ -56.398998260498047, -36.709999084472649, 0.0 ], [ -56.397998809814453, -36.717998504638665, 0.0 ], [ -56.396999359130859, -36.726001739501946, 0.0 ], [ -56.395999908447266, -36.742000579833977, 0.0 ], [ -56.395999908447266, -36.770000457763665, 0.0 ], [ -56.391998291015625, -36.818000793457024, 0.0 ], [ -56.387001037597656, -36.834999084472649, 0.0 ], [ -56.389999389648438, -36.848999023437493, 0.0 ], [ -56.395999908447266, -36.855998992919915, 0.0 ], [ -56.400001525878906, -36.874000549316399, 0.0 ], [ -56.395000457763672, -36.882999420166009, 0.0 ], [ -56.391998291015625, -36.887001037597649, 0.0 ], [ -56.396999359130859, -36.88999938964843, 0.0 ], [ -56.397998809814453, -36.900001525878899, 0.0 ], [ -56.412998199462891, -36.923000335693352, 0.0 ], [ -56.412998199462891, -36.931999206542962, 0.0 ], [ -56.416999816894531, -36.946998596191399, 0.0 ], [ -56.431999206542969, -36.956001281738274, 0.0 ], [ -56.426998138427734, -36.966999053955071, 0.0 ], [ -56.423000335693359, -36.983001708984368, 0.0 ], [ -56.428001403808594, -36.999000549316399, 0.0 ], [ -56.444000244140625, -37.012001037597649, 0.0 ], [ -56.465000152587891, -37.062000274658196, 0.0 ], [ -56.465000152587891, -37.062000274658196, 0.0 ], [ -56.507999420166016, -37.10200119018554, 0.0 ], [ -56.507999420166016, -37.10200119018554, 0.0 ], [ -56.544998168945312, -37.145999908447259, 0.0 ], [ -56.544998168945312, -37.145999908447259, 0.0 ], [ -56.587001800537109, -37.18799972534179, 0.0 ], [ -56.587001800537109, -37.18799972534179, 0.0 ], [ -56.618999481201172, -37.233001708984368, 0.0 ], [ -56.618999481201172, -37.233001708984368, 0.0 ], [ -56.657001495361328, -37.276000976562493, 0.0 ], [ -56.657001495361328, -37.276000976562493, 0.0 ], [ -56.680999755859375, -37.325000762939446, 0.0 ], [ -56.680999755859375, -37.325000762939446, 0.0 ], [ -56.706001281738281, -37.375999450683587, 0.0 ], [ -56.706001281738281, -37.375999450683587, 0.0 ], [ -56.757999420166016, -37.408000946044915, 0.0 ], [ -56.757999420166016, -37.408000946044915, 0.0 ], [ -56.792999267578125, -37.452999114990227, 0.0 ], [ -56.792999267578125, -37.452999114990227, 0.0 ], [ -56.844001770019531, -37.487998962402337, 0.0 ], [ -56.844001770019531, -37.487998962402337, 0.0 ], [ -56.872001647949219, -37.535999298095696, 0.0 ], [ -56.872001647949219, -37.535999298095696, 0.0 ], [ -56.880001068115234, -37.590000152587884, 0.0 ], [ -56.880001068115234, -37.590000152587884, 0.0 ], [ -56.898998260498047, -37.63999938964843, 0.0 ], [ -56.898998260498047, -37.63999938964843, 0.0 ], [ -56.952999114990234, -37.67499923706054, 0.0 ], [ -56.952999114990234, -37.67499923706054, 0.0 ], [ -56.993000030517578, -37.716999053955071, 0.0 ], [ -56.993000030517578, -37.716999053955071, 0.0 ], [ -57.0, -37.723999023437493, 0.0 ], [ -57.012001037597656, -37.709999084472649, 0.0 ], [ -57.048000335693359, -37.754001617431634, 0.0 ], [ -57.143001556396484, -37.821998596191399, 0.0 ], [ -57.176998138427734, -37.86500167846679, 0.0 ], [ -57.183998107910156, -37.87699890136718, 0.0 ], [ -57.195999145507812, -37.884998321533196, 0.0 ], [ -57.213001251220703, -37.897998809814446, 0.0 ], [ -57.222000122070312, -37.90299987792968, 0.0 ], [ -57.259998321533203, -37.945999145507805, 0.0 ], [ -57.268001556396484, -37.959999084472649, 0.0 ], [ -57.278999328613281, -37.974998474121087, 0.0 ], [ -57.277000427246094, -38.008998870849602, 0.0 ], [ -57.284999847412109, -38.019001007080071, 0.0 ], [ -57.283000946044922, -38.07600021362304, 0.0 ], [ -57.283000946044922, -38.07600021362304, 0.0 ], [ -57.286998748779297, -38.131999969482415, 0.0 ], [ -57.286998748779297, -38.131999969482415, 0.0 ], [ -57.307998657226562, -38.186000823974602, 0.0 ], [ -57.307998657226562, -38.186000823974602, 0.0 ], [ -57.332000732421875, -38.23899841308593, 0.0 ], [ -57.332000732421875, -38.23899841308593, 0.0 ], [ -57.381999969482422, -38.283000946044915, 0.0 ], [ -57.381999969482422, -38.283000946044915, 0.0 ], [ -57.446998596191406, -38.311000823974602, 0.0 ], [ -57.446998596191406, -38.311000823974602, 0.0 ], [ -57.486000061035156, -38.358001708984368, 0.0 ], [ -57.486000061035156, -38.358001708984368, 0.0 ], [ -57.546001434326172, -38.391998291015618, 0.0 ], [ -57.546001434326172, -38.391998291015618, 0.0 ], [ -57.611000061035156, -38.419998168945305, 0.0 ], [ -57.611000061035156, -38.419998168945305, 0.0 ], [ -57.667999267578125, -38.45500183105468, 0.0 ], [ -57.667999267578125, -38.45500183105468, 0.0 ], [ -57.722999572753906, -38.507999420166009, 0.0 ], [ -57.722999572753906, -38.507999420166009, 0.0 ], [ -57.794998168945312, -38.516998291015618, 0.0 ], [ -57.794998168945312, -38.516998291015618, 0.0 ], [ -57.860000610351562, -38.541999816894524, 0.0 ], [ -57.860000610351562, -38.541999816894524, 0.0 ], [ -57.918998718261719, -38.581001281738274, 0.0 ], [ -57.918998718261719, -38.581001281738274, 0.0 ], [ -57.983001708984375, -38.606998443603509, 0.0 ], [ -57.983001708984375, -38.606998443603509, 0.0 ], [ -58.007999420166016, -38.609001159667962, 0.0 ], [ -58.025001525878906, -38.601001739501946, 0.0 ], [ -58.090999603271484, -38.627998352050774, 0.0 ], [ -58.090999603271484, -38.627998352050774, 0.0 ], [ -58.159000396728516, -38.651000976562493, 0.0 ], [ -58.159000396728516, -38.651000976562493, 0.0 ], [ -58.227001190185547, -38.673000335693352, 0.0 ], [ -58.227001190185547, -38.673000335693352, 0.0 ], [ -58.300998687744141, -38.682998657226555, 0.0 ], [ -58.300998687744141, -38.682998657226555, 0.0 ], [ -58.381000518798828, -38.691001892089837, 0.0 ], [ -58.381000518798828, -38.691001892089837, 0.0 ], [ -58.430000305175781, -38.735000610351555, 0.0 ], [ -58.430000305175781, -38.735000610351555, 0.0 ], [ -58.506999969482422, -38.744998931884759, 0.0 ], [ -58.506999969482422, -38.744998931884759, 0.0 ], [ -58.577999114990234, -38.762001037597649, 0.0 ], [ -58.577999114990234, -38.762001037597649, 0.0 ], [ -58.646999359130859, -38.785999298095696, 0.0 ], [ -58.646999359130859, -38.785999298095696, 0.0 ], [ -58.715000152587891, -38.807998657226555, 0.0 ], [ -58.715000152587891, -38.807998657226555, 0.0 ], [ -58.777999877929688, -38.834999084472649, 0.0 ], [ -58.777999877929688, -38.834999084472649, 0.0 ], [ -58.853000640869141, -38.837001800537102, 0.0 ], [ -58.853000640869141, -38.837001800537102, 0.0 ], [ -58.921001434326172, -38.854999542236321, 0.0 ], [ -58.921001434326172, -38.854999542236321, 0.0 ], [ -58.993000030517578, -38.862998962402337, 0.0 ], [ -58.993000030517578, -38.862998962402337, 0.0 ], [ -59.007999420166016, -38.868000030517571, 0.0 ], [ -59.002998352050781, -38.875, 0.0 ], [ -59.178001403808594, -38.91600036621093, 0.0 ], [ -59.616001129150391, -39.011001586914055, 0.0 ], [ -60.001998901367188, -39.075000762939446, 0.0 ], [ -60.067001342773438, -39.078998565673821, 0.0 ], [ -60.067001342773438, -39.078998565673821, 0.0 ], [ -60.132999420166016, -39.084999084472649, 0.0 ], [ -60.132999420166016, -39.084999084472649, 0.0 ], [ -60.195999145507812, -39.097000122070305, 0.0 ], [ -60.195999145507812, -39.097000122070305, 0.0 ], [ -60.263999938964844, -39.099998474121087, 0.0 ], [ -60.263999938964844, -39.099998474121087, 0.0 ], [ -60.327999114990234, -39.118999481201165, 0.0 ], [ -60.327999114990234, -39.118999481201165, 0.0 ], [ -60.391998291015625, -39.120998382568352, 0.0 ], [ -60.391998291015625, -39.120998382568352, 0.0 ], [ -60.458000183105469, -39.124000549316399, 0.0 ], [ -60.458000183105469, -39.124000549316399, 0.0 ], [ -60.521999359130859, -39.133998870849602, 0.0 ], [ -60.521999359130859, -39.133998870849602, 0.0 ], [ -60.581001281738281, -39.15299987792968, 0.0 ], [ -60.581001281738281, -39.15299987792968, 0.0 ], [ -60.648998260498047, -39.158000946044915, 0.0 ], [ -60.648998260498047, -39.158000946044915, 0.0 ], [ -60.715999603271484, -39.167999267578118, 0.0 ], [ -60.715999603271484, -39.167999267578118, 0.0 ], [ -60.782001495361328, -39.178001403808587, 0.0 ], [ -60.782001495361328, -39.178001403808587, 0.0 ], [ -60.849998474121094, -39.182998657226555, 0.0 ], [ -60.849998474121094, -39.182998657226555, 0.0 ], [ -60.916999816894531, -39.185001373291009, 0.0 ], [ -60.916999816894531, -39.185001373291009, 0.0 ], [ -60.983001708984375, -39.188999176025384, 0.0 ], [ -60.983001708984375, -39.188999176025384, 0.0 ], [ -60.993999481201172, -39.194999694824212, 0.0 ], [ -60.983001708984375, -39.202999114990227, 0.0 ], [ -61.006000518798828, -39.199001312255852, 0.0 ], [ -61.03900146484375, -39.201999664306634, 0.0 ], [ -61.054000854492188, -39.210998535156243, 0.0 ], [ -61.080001831054688, -39.224998474121087, 0.0 ], [ -61.092998504638672, -39.22700119018554, 0.0 ], [ -61.117000579833984, -39.228000640869134, 0.0 ], [ -61.172000885009766, -39.229999542236321, 0.0 ], [ -61.191001892089844, -39.224998474121087, 0.0 ], [ -61.208000183105469, -39.230998992919915, 0.0 ], [ -61.237998962402344, -39.230998992919915, 0.0 ], [ -61.244998931884766, -39.230998992919915, 0.0 ], [ -61.298000335693359, -39.224998474121087, 0.0 ], [ -61.341999053955078, -39.222999572753899, 0.0 ], [ -61.366001129150391, -39.20100021362304, 0.0 ], [ -61.41400146484375, -39.195999145507805, 0.0 ], [ -61.839000701904297, -39.599998474121087, 0.0 ], [ -61.879001617431641, -39.833000183105462, 0.0 ], [ -61.787998199462891, -40.0, 0.0 ], [ -61.778999328613281, -40.0, 0.0 ], [ -61.744998931884766, -40.098999023437493, 0.0 ], [ -61.76300048828125, -40.11399841308593, 0.0 ], [ -61.750999450683594, -40.13999938964843, 0.0 ], [ -61.699001312255859, -40.181999206542962, 0.0 ], [ -61.695999145507812, -40.209999084472649, 0.0 ], [ -61.694000244140625, -40.255001068115227, 0.0 ], [ -61.693000793457031, -40.300998687744134, 0.0 ], [ -61.708000183105469, -40.349998474121087, 0.0 ], [ -61.71099853515625, -40.407001495361321, 0.0 ], [ -61.686000823974609, -40.444999694824212, 0.0 ], [ -61.687000274658203, -40.491001129150384, 0.0 ], [ -61.700000762939453, -40.539001464843743, 0.0 ], [ -61.694999694824219, -40.558998107910149, 0.0 ], [ -61.701000213623047, -40.587001800537102, 0.0 ], [ -61.714000701904297, -40.619998931884759, 0.0 ], [ -61.748001098632812, -40.63999938964843, 0.0 ], [ -61.775001525878906, -40.660999298095696, 0.0 ], [ -61.791000366210938, -40.678001403808587, 0.0 ], [ -61.800998687744141, -40.695999145507805, 0.0 ], [ -61.825000762939453, -40.70100021362304, 0.0 ], [ -61.86199951171875, -40.73899841308593, 0.0 ], [ -61.890998840332031, -40.771999359130852, 0.0 ], [ -61.921001434326172, -40.772998809814446, 0.0 ], [ -61.958999633789062, -40.785999298095696, 0.0 ], [ -61.986000061035156, -40.79100036621093, 0.0 ], [ -61.992000579833984, -40.800998687744134, 0.0 ], [ -62.011001586914062, -40.81299972534179, 0.0 ], [ -62.006999969482422, -40.824001312255852, 0.0 ], [ -62.044998168945312, -40.868999481201165, 0.0 ], [ -62.068000793457031, -40.910999298095696, 0.0 ], [ -62.073001861572266, -40.917999267578118, 0.0 ], [ -62.078998565673828, -40.923999786376946, 0.0 ], [ -62.081001281738281, -40.938999176025384, 0.0 ], [ -62.090999603271484, -40.946998596191399, 0.0 ], [ -62.096000671386719, -40.962001800537102, 0.0 ], [ -62.081001281738281, -40.978000640869134, 0.0 ], [ -62.102001190185547, -40.99000167846679, 0.0 ], [ -62.118999481201172, -41.005001068115227, 0.0 ], [ -62.146999359130859, -41.020000457763665, 0.0 ], [ -62.167999267578125, -41.046001434326165, 0.0 ], [ -62.198001861572266, -41.057998657226555, 0.0 ], [ -62.229999542236328, -41.071998596191399, 0.0 ], [ -62.268001556396484, -41.078998565673821, 0.0 ], [ -62.305000305175781, -41.097999572753899, 0.0 ], [ -62.312999725341797, -41.125, 0.0 ], [ -62.347000122070312, -41.127998352050774, 0.0 ], [ -62.380001068115234, -41.133998870849602, 0.0 ], [ -62.415000915527344, -41.138000488281243, 0.0 ], [ -62.449001312255859, -41.141998291015618, 0.0 ], [ -62.478000640869141, -41.154998779296868, 0.0 ], [ -62.51300048828125, -41.162998199462884, 0.0 ], [ -62.525001525878906, -41.188999176025384, 0.0 ], [ -62.541999816894531, -41.210998535156243, 0.0 ], [ -62.560001373291016, -41.234001159667962, 0.0 ], [ -62.576999664306641, -41.256999969482415, 0.0 ], [ -62.609001159667969, -41.266998291015618, 0.0 ], [ -62.639999389648438, -41.282001495361321, 0.0 ], [ -62.639999389648438, -41.282001495361321, 0.0 ], [ -62.675998687744141, -41.283000946044915, 0.0 ], [ -62.675998687744141, -41.283000946044915, 0.0 ], [ -62.709999084472656, -41.284999847412102, 0.0 ], [ -62.709999084472656, -41.284999847412102, 0.0 ], [ -62.748001098632812, -41.284999847412102, 0.0 ], [ -62.748001098632812, -41.284999847412102, 0.0 ], [ -62.783000946044922, -41.282001495361321, 0.0 ], [ -62.783000946044922, -41.282001495361321, 0.0 ], [ -62.812000274658203, -41.296001434326165, 0.0 ], [ -62.812000274658203, -41.296001434326165, 0.0 ], [ -62.83599853515625, -41.314998626708977, 0.0 ], [ -62.83599853515625, -41.314998626708977, 0.0 ], [ -62.867000579833984, -41.327999114990227, 0.0 ], [ -62.867000579833984, -41.327999114990227, 0.0 ], [ -62.9010009765625, -41.332000732421868, 0.0 ], [ -63.463001251220703, -42.060001373291009, 0.0 ], [ -63.446998596191406, -42.08000183105468, 0.0 ], [ -63.429000854492188, -42.101001739501946, 0.0 ], [ -63.418998718261719, -42.118000030517571, 0.0 ], [ -63.429000854492188, -42.136001586914055, 0.0 ], [ -63.416000366210938, -42.165000915527337, 0.0 ], [ -63.338001251220703, -42.236999511718743, 0.0 ], [ -63.326999664306641, -42.25, 0.0 ], [ -63.321998596191406, -42.263000488281243, 0.0 ], [ -63.313999176025391, -42.278999328613274, 0.0 ], [ -63.306999206542969, -42.305000305175774, 0.0 ], [ -63.303001403808594, -42.347999572753899, 0.0 ], [ -63.311000823974609, -42.394001007080071, 0.0 ], [ -63.316001892089844, -42.414001464843743, 0.0 ], [ -63.319999694824219, -42.41600036621093, 0.0 ], [ -63.324001312255859, -42.428001403808587, 0.0 ], [ -63.328998565673828, -42.456001281738274, 0.0 ], [ -63.327999114990234, -42.459999084472649, 0.0 ], [ -63.325000762939453, -42.520999908447259, 0.0 ], [ -63.327999114990234, -42.569999694824212, 0.0 ], [ -63.324001312255859, -42.595001220703118, 0.0 ], [ -63.324001312255859, -42.624000549316399, 0.0 ], [ -63.332000732421875, -42.694000244140618, 0.0 ], [ -63.342998504638672, -42.759998321533196, 0.0 ], [ -63.354000091552734, -42.792999267578118, 0.0 ], [ -63.354000091552734, -42.805000305175774, 0.0 ], [ -63.358001708984375, -42.825000762939446, 0.0 ], [ -63.375, -42.855998992919915, 0.0 ], [ -63.381000518798828, -42.858001708984368, 0.0 ], [ -63.412998199462891, -42.868999481201165, 0.0 ], [ -63.424999237060547, -42.879001617431634, 0.0 ], [ -63.438999176025391, -42.887001037597649, 0.0 ], [ -63.444999694824219, -42.891998291015618, 0.0 ], [ -63.457000732421875, -42.896999359130852, 0.0 ], [ -63.463001251220703, -42.902000427246087, 0.0 ], [ -63.477001190185547, -42.904998779296868, 0.0 ], [ -63.478000640869141, -42.909999847412102, 0.0 ], [ -63.490001678466797, -42.91600036621093, 0.0 ], [ -63.513999938964844, -42.939998626708977, 0.0 ], [ -63.530998229980469, -42.952999114990227, 0.0 ], [ -63.576999664306641, -42.970001220703118, 0.0 ], [ -63.5989990234375, -42.978000640869134, 0.0 ], [ -63.611000061035156, -42.984001159667962, 0.0 ], [ -63.633998870849609, -42.991001129150384, 0.0 ], [ -63.655998229980469, -43.020000457763665, 0.0 ], [ -63.665000915527344, -43.0, 0.0 ], [ -63.731998443603516, -43.015998840332024, 0.0 ], [ -63.731998443603516, -43.015998840332024, 0.0 ], [ -63.800998687744141, -43.020999908447259, 0.0 ], [ -63.800998687744141, -43.020999908447259, 0.0 ], [ -63.867000579833984, -43.029998779296868, 0.0 ], [ -63.867000579833984, -43.029998779296868, 0.0 ], [ -63.933998107910156, -43.042999267578118, 0.0 ], [ -63.933998107910156, -43.042999267578118, 0.0 ], [ -63.969001770019531, -43.087001800537102, 0.0 ], [ -63.969001770019531, -43.087001800537102, 0.0 ], [ -64.022003173828125, -43.095001220703118, 0.0 ], [ -64.01300048828125, -43.092998504638665, 0.0 ], [ -64.023002624511719, -43.098999023437493, 0.0 ], [ -64.040000915527344, -43.098999023437493, 0.0 ], [ -64.053001403808594, -43.103000640869134, 0.0 ], [ -64.061996459960938, -43.105998992919915, 0.0 ], [ -64.086997985839844, -43.109001159667962, 0.0 ], [ -64.089996337890625, -43.111999511718743, 0.0 ], [ -64.096000671386719, -43.119998931884759, 0.0 ], [ -64.099998474121094, -43.125999450683587, 0.0 ], [ -64.111000061035156, -43.133998870849602, 0.0 ], [ -64.122001647949219, -43.150001525878899, 0.0 ], [ -64.179000854492188, -43.175998687744134, 0.0 ], [ -64.194000244140625, -43.176998138427727, 0.0 ], [ -64.235000610351562, -43.198001861572259, 0.0 ], [ -64.241996765136719, -43.20500183105468, 0.0 ], [ -64.252998352050781, -43.208999633789055, 0.0 ], [ -64.26300048828125, -43.216999053955071, 0.0 ], [ -64.274002075195312, -43.222000122070305, 0.0 ], [ -64.301002502441406, -43.23899841308593, 0.0 ], [ -64.313003540039062, -43.236999511718743, 0.0 ], [ -64.321998596191406, -43.236999511718743, 0.0 ], [ -64.349998474121094, -43.248001098632805, 0.0 ], [ -64.374000549316406, -43.257999420166009, 0.0 ], [ -64.4010009765625, -43.278999328613274, 0.0 ], [ -64.419998168945312, -43.278999328613274, 0.0 ], [ -64.426002502441406, -43.293998718261712, 0.0 ], [ -64.443000793457031, -43.305000305175774, 0.0 ], [ -64.462997436523438, -43.310001373291009, 0.0 ], [ -64.5260009765625, -43.325000762939446, 0.0 ], [ -64.547996520996094, -43.332000732421868, 0.0 ], [ -64.577003479003906, -43.33900070190429, 0.0 ], [ -64.601997375488281, -43.344001770019524, 0.0 ], [ -64.629997253417969, -43.361000061035149, 0.0 ], [ -64.653999328613281, -43.367000579833977, 0.0 ], [ -64.666999816894531, -43.370998382568352, 0.0 ], [ -64.678001403808594, -43.377998352050774, 0.0 ], [ -64.689002990722656, -43.386001586914055, 0.0 ], [ -64.693000793457031, -43.393001556396477, 0.0 ], [ -64.718002319335938, -43.391998291015618, 0.0 ], [ -64.720001220703125, -43.39899826049804, 0.0 ], [ -64.737998962402344, -43.396999359130852, 0.0 ], [ -64.745002746582031, -43.404998779296868, 0.0 ], [ -64.765998840332031, -43.415000915527337, 0.0 ], [ -64.797996520996094, -43.415000915527337, 0.0 ], [ -64.7969970703125, -43.430000305175774, 0.0 ], [ -64.813003540039062, -43.444999694824212, 0.0 ], [ -64.820999145507812, -43.505001068115227, 0.0 ], [ -64.837997436523438, -43.519001007080071, 0.0 ], [ -64.8489990234375, -43.535999298095696, 0.0 ], [ -64.859001159667969, -43.547000885009759, 0.0 ], [ -64.860000610351562, -43.556999206542962, 0.0 ], [ -64.875, -43.57600021362304, 0.0 ], [ -64.896003723144531, -43.588001251220696, 0.0 ], [ -64.907997131347656, -43.597999572753899, 0.0 ], [ -64.926002502441406, -43.610000610351555, 0.0 ], [ -64.930999755859375, -43.618000030517571, 0.0 ], [ -64.945999145507812, -43.63999938964843, 0.0 ], [ -64.969001770019531, -43.655998229980462, 0.0 ], [ -64.984001159667969, -43.672000885009759, 0.0 ], [ -65.003997802734375, -43.703998565673821, 0.0 ], [ -64.995002746582031, -43.72700119018554, 0.0 ], [ -64.990997314453125, -43.74000167846679, 0.0 ], [ -64.987998962402344, -43.724998474121087, 0.0 ], [ -65.029998779296875, -43.846000671386712, 0.0 ], [ -65.012001037597656, -43.854999542236321, 0.0 ], [ -64.987998962402344, -43.869998931884759, 0.0 ], [ -64.971000671386719, -43.916999816894524, 0.0 ], [ -64.961997985839844, -43.931999206542962, 0.0 ], [ -64.952003479003906, -43.941001892089837, 0.0 ], [ -64.952003479003906, -43.94200134277343, 0.0 ], [ -64.946998596191406, -43.949001312255852, 0.0 ], [ -64.944999694824219, -43.951999664306634, 0.0 ], [ -64.936996459960938, -43.95500183105468, 0.0 ], [ -64.931999206542969, -43.957000732421868, 0.0 ], [ -64.902999877929688, -43.999000549316399, 0.0 ], [ -64.889999389648438, -44.02799987792968, 0.0 ], [ -64.890998840332031, -44.034000396728509, 0.0 ], [ -64.888999938964844, -44.041999816894524, 0.0 ], [ -64.892997741699219, -44.04999923706054, 0.0 ], [ -64.892997741699219, -44.06700134277343, 0.0 ], [ -64.894996643066406, -44.090999603271477, 0.0 ], [ -64.904998779296875, -44.10200119018554, 0.0 ], [ -64.925003051757812, -44.11500167846679, 0.0 ], [ -64.916999816894531, -44.117000579833977, 0.0 ], [ -64.93499755859375, -44.145000457763665, 0.0 ], [ -64.936996459960938, -44.16199874877929, 0.0 ], [ -64.922996520996094, -44.171001434326165, 0.0 ], [ -64.903999328613281, -44.180999755859368, 0.0 ], [ -64.878997802734375, -44.194000244140618, 0.0 ], [ -64.916000366210938, -44.21400070190429, 0.0 ], [ -64.916999816894531, -44.220001220703118, 0.0 ], [ -64.941001892089844, -44.230998992919915, 0.0 ], [ -64.941001892089844, -44.234001159667962, 0.0 ], [ -64.913002014160156, -44.24000167846679, 0.0 ], [ -64.878997802734375, -44.256999969482415, 0.0 ], [ -64.820999145507812, -44.300998687744134, 0.0 ], [ -64.811996459960938, -44.354000091552727, 0.0 ], [ -64.802001953125, -44.404998779296868, 0.0 ], [ -64.806999206542969, -44.43799972534179, 0.0 ], [ -64.876998901367188, -44.551998138427727, 0.0 ], [ -64.905998229980469, -44.575000762939446, 0.0 ], [ -64.992996215820312, -44.611999511718743, 0.0 ], [ -64.999000549316406, -44.583999633789055, 0.0 ], [ -65.005996704101562, -44.599998474121087, 0.0 ], [ -65.051002502441406, -44.638999938964837, 0.0 ], [ -65.109001159667969, -44.657001495361321, 0.0 ], [ -65.238998413085938, -44.909999847412102, 0.0 ], [ -65.21099853515625, -44.94200134277343, 0.0 ], [ -65.193000793457031, -44.953998565673821, 0.0 ], [ -65.176002502441406, -44.96400070190429, 0.0 ], [ -65.125, -44.992000579833977, 0.0 ], [ -65.116996765136719, -44.987998962402337, 0.0 ], [ -65.127998352050781, -44.992000579833977, 0.0 ], [ -65.112998962402344, -45.00199890136718, 0.0 ], [ -65.087997436523438, -45.037998199462884, 0.0 ], [ -65.082000732421875, -45.069999694824212, 0.0 ], [ -65.077003479003906, -45.109001159667962, 0.0 ], [ -65.082000732421875, -45.140998840332024, 0.0 ], [ -65.089996337890625, -45.173000335693352, 0.0 ], [ -65.099998474121094, -45.191001892089837, 0.0 ], [ -65.113998413085938, -45.21400070190429, 0.0 ], [ -65.140998840332031, -45.236999511718743, 0.0 ], [ -65.166000366210938, -45.257999420166009, 0.0 ], [ -65.200996398925781, -45.291999816894524, 0.0 ], [ -65.240997314453125, -45.310001373291009, 0.0 ], [ -65.269996643066406, -45.325000762939446, 0.0 ], [ -65.563003540039062, -47.060001373291009, 0.0 ], [ -65.551002502441406, -47.083999633789055, 0.0 ], [ -65.527999877929688, -47.083000183105462, 0.0 ], [ -65.522003173828125, -47.097000122070305, 0.0 ], [ -65.513999938964844, -47.103000640869134, 0.0 ], [ -65.512001037597656, -47.105998992919915, 0.0 ], [ -65.504997253417969, -47.112998962402337, 0.0 ], [ -65.5, -47.123001098632805, 0.0 ], [ -65.488998413085938, -47.132999420166009, 0.0 ], [ -65.483001708984375, -47.147998809814446, 0.0 ], [ -65.475997924804688, -47.16600036621093, 0.0 ], [ -65.474998474121094, -47.178001403808587, 0.0 ], [ -65.470001220703125, -47.183998107910149, 0.0 ], [ -65.443000793457031, -47.222000122070305, 0.0 ], [ -65.433998107910156, -47.26499938964843, 0.0 ], [ -65.433998107910156, -47.26499938964843, 0.0 ], [ -65.424003601074219, -47.31299972534179, 0.0 ], [ -65.424003601074219, -47.373001098632805, 0.0 ], [ -65.412002563476562, -47.397998809814446, 0.0 ], [ -65.425003051757812, -47.443000793457024, 0.0 ], [ -65.4219970703125, -47.471000671386712, 0.0 ], [ -65.46099853515625, -47.48899841308593, 0.0 ], [ -65.458999633789062, -47.521999359130852, 0.0 ], [ -65.462997436523438, -47.555999755859368, 0.0 ], [ -65.470001220703125, -47.576999664306634, 0.0 ], [ -65.457000732421875, -47.608001708984368, 0.0 ], [ -65.4739990234375, -47.632999420166009, 0.0 ], [ -65.485000610351562, -47.651000976562493, 0.0 ], [ -65.5, -47.686000823974602, 0.0 ], [ -65.518997192382812, -47.72700119018554, 0.0 ], [ -65.524002075195312, -47.744998931884759, 0.0 ], [ -65.51300048828125, -47.761001586914055, 0.0 ], [ -65.524002075195312, -47.78699874877929, 0.0 ], [ -65.521003723144531, -47.79100036621093, 0.0 ], [ -65.518997192382812, -47.792999267578118, 0.0 ], [ -65.516998291015625, -47.787998199462884, 0.0 ], [ -65.509002685546875, -47.796001434326165, 0.0 ], [ -65.505996704101562, -47.801998138427727, 0.0 ], [ -65.502998352050781, -47.805000305175774, 0.0 ], [ -65.499000549316406, -47.807998657226555, 0.0 ], [ -65.495002746582031, -47.811000823974602, 0.0 ], [ -65.494003295898438, -47.814998626708977, 0.0 ], [ -65.486000061035156, -47.824001312255852, 0.0 ], [ -65.472000122070312, -47.833999633789055, 0.0 ], [ -65.474998474121094, -47.833000183105462, 0.0 ], [ -65.462997436523438, -47.834999084472649, 0.0 ], [ -65.467002868652344, -47.861000061035149, 0.0 ], [ -65.46600341796875, -47.867000579833977, 0.0 ], [ -65.461997985839844, -47.875, 0.0 ], [ -65.458999633789062, -47.888000488281243, 0.0 ], [ -65.458999633789062, -47.903999328613274, 0.0 ], [ -65.459999084472656, -47.909000396728509, 0.0 ], [ -65.454002380371094, -47.918998718261712, 0.0 ], [ -65.457000732421875, -47.930000305175774, 0.0 ], [ -65.448997497558594, -47.939998626708977, 0.0 ], [ -65.445999145507812, -47.950000762939446, 0.0 ], [ -65.446998596191406, -47.959999084472649, 0.0 ], [ -65.450996398925781, -47.958999633789055, 0.0 ], [ -65.457000732421875, -47.966999053955071, 0.0 ], [ -65.456001281738281, -47.976001739501946, 0.0 ], [ -65.4530029296875, -47.987998962402337, 0.0 ], [ -65.458999633789062, -47.984001159667962, 0.0 ], [ -65.467002868652344, -47.991001129150384, 0.0 ], [ -65.463996887207031, -48.002998352050781, 0.0 ], [ -65.996002197265625, -48.658000946044922, 0.0 ], [ -66.009002685546875, -48.676998138427734, 0.0 ], [ -66.029998779296875, -48.688999176025391, 0.0 ], [ -66.06500244140625, -48.691001892089844, 0.0 ], [ -66.094001770019531, -48.696998596191406, 0.0 ], [ -66.130996704101562, -48.702999114990234, 0.0 ], [ -66.185997009277344, -48.71099853515625, 0.0 ], [ -66.246002197265625, -48.715999603271484, 0.0 ], [ -66.28900146484375, -48.728000640869141, 0.0 ], [ -66.345001220703125, -48.703998565673828, 0.0 ], [ -66.376998901367188, -48.693000793457031, 0.0 ], [ -66.416999816894531, -48.675998687744141, 0.0 ], [ -66.459999084472656, -48.646999359130859, 0.0 ], [ -66.532997131347656, -48.632999420166016, 0.0 ], [ -66.805000305175781, -48.874000549316406, 0.0 ], [ -66.845001220703125, -48.908000946044922, 0.0 ], [ -66.911003112792969, -48.939998626708984, 0.0 ], [ -66.952003479003906, -48.966999053955078, 0.0 ], [ -66.996002197265625, -48.983001708984375, 0.0 ], [ -67.113998413085938, -48.992000579833984, 0.0 ], [ -67.135002136230469, -48.999000549316406, 0.0 ], [ -67.162002563476562, -49.029998779296875, 0.0 ], [ -67.195999145507812, -49.044998168945312, 0.0 ], [ -67.208999633789062, -49.048000335693359, 0.0 ], [ -67.228996276855469, -49.058998107910156, 0.0 ], [ -67.252998352050781, -49.088001251220703, 0.0 ], [ -67.271003723144531, -49.099998474121094, 0.0 ], [ -67.285003662109375, -49.125, 0.0 ], [ -67.299003601074219, -49.137001037597656, 0.0 ], [ -67.33599853515625, -49.152999877929688, 0.0 ], [ -67.339996337890625, -49.181999206542969, 0.0 ], [ -67.329002380371094, -49.222999572753906, 0.0 ], [ -67.337997436523438, -49.250999450683594, 0.0 ], [ -67.338996887207031, -49.327999114990234, 0.0 ], [ -67.355003356933594, -49.362998962402344, 0.0 ], [ -67.374000549316406, -49.381999969482422, 0.0 ], [ -67.397003173828125, -49.415000915527344, 0.0 ], [ -67.406997680664062, -49.443000793457031, 0.0 ], [ -67.425003051757812, -49.471000671386719, 0.0 ], [ -67.43499755859375, -49.493999481201172, 0.0 ], [ -67.420997619628906, -49.568000793457031, 0.0 ], [ -67.442001342773438, -49.616001129150391, 0.0 ], [ -67.438003540039062, -49.633998870849609, 0.0 ], [ -67.438003540039062, -49.6510009765625, 0.0 ], [ -67.441001892089844, -49.687999725341797, 0.0 ], [ -67.458000183105469, -49.699001312255859, 0.0 ], [ -67.449996948242188, -49.778999328613281, 0.0 ], [ -67.462997436523438, -49.828998565673828, 0.0 ], [ -67.505996704101562, -49.883998870849609, 0.0 ], [ -67.523002624511719, -49.935001373291016, 0.0 ], [ -67.532997131347656, -49.969001770019531, 0.0 ], [ -67.556999206542969, -50.004001617431641, 0.0 ], [ -67.555999755859375, -50.007999420166016, 0.0 ], [ -67.573997497558594, -50.023998260498047, 0.0 ], [ -67.596000671386719, -50.042999267578125, 0.0 ], [ -67.633003234863281, -50.062999725341797, 0.0 ], [ -67.652000427246094, -50.091999053955078, 0.0 ], [ -67.695999145507812, -50.133998870849609, 0.0 ], [ -67.782997131347656, -50.165000915527344, 0.0 ], [ -67.999000549316406, -50.272998809814453, 0.0 ], [ -67.984001159667969, -50.277999877929688, 0.0 ], [ -68.042999267578125, -50.296001434326172, 0.0 ], [ -68.109001159667969, -50.313999176025391, 0.0 ], [ -68.140998840332031, -50.331001281738281, 0.0 ], [ -68.233001708984375, -50.355998992919922, 0.0 ], [ -68.294998168945312, -50.373001098632812, 0.0 ], [ -68.319000244140625, -50.380001068115234, 0.0 ], [ -68.359001159667969, -50.387001037597656, 0.0 ], [ -68.386001586914062, -50.396999359130859, 0.0 ], [ -68.396003723144531, -50.403999328613281, 0.0 ], [ -68.424003601074219, -50.421001434326172, 0.0 ], [ -68.450996398925781, -50.450000762939453, 0.0 ], [ -68.507003784179688, -50.452999114990234, 0.0 ], [ -68.550003051757812, -50.464000701904297, 0.0 ], [ -68.588996887207031, -50.467998504638672, 0.0 ], [ -68.699996948242188, -50.498001098632812, 0.0 ], [ -68.689002990722656, -50.500999450683594, 0.0 ], [ -68.708000183105469, -50.543998718261719, 0.0 ], [ -68.724998474121094, -50.580001831054688, 0.0 ], [ -68.749000549316406, -50.610000610351562, 0.0 ], [ -68.773002624511719, -50.634998321533203, 0.0 ], [ -68.794998168945312, -50.661998748779297, 0.0 ], [ -68.818000793457031, -50.726001739501953, 0.0 ], [ -68.855003356933594, -50.761001586914062, 0.0 ], [ -68.834999084472656, -50.778999328613281, 0.0 ], [ -68.836997985839844, -50.805000305175781, 0.0 ], [ -68.834999084472656, -50.838001251220703, 0.0 ], [ -68.832000732421875, -50.882999420166016, 0.0 ], [ -68.823997497558594, -50.915000915527344, 0.0 ], [ -68.814002990722656, -50.939998626708984, 0.0 ], [ -68.795997619628906, -50.994998931884766, 0.0 ], [ -68.7969970703125, -51.012001037597656, 0.0 ], [ -68.801002502441406, -51.023998260498047, 0.0 ], [ -68.7969970703125, -51.035999298095703, 0.0 ], [ -68.799003601074219, -51.053001403808594, 0.0 ], [ -68.807998657226562, -51.066001892089844, 0.0 ], [ -68.814002990722656, -51.084999084472656, 0.0 ], [ -68.6510009765625, -51.458999633789062, 0.0 ], [ -68.630996704101562, -51.467998504638672, 0.0 ], [ -68.610000610351562, -51.48699951171875, 0.0 ], [ -68.592002868652344, -51.505001068115234, 0.0 ], [ -68.550003051757812, -51.573001861572266, 0.0 ], [ -68.566001892089844, -51.604000091552734, 0.0 ], [ -68.575996398925781, -51.627998352050781, 0.0 ], [ -68.593002319335938, -51.662998199462891, 0.0 ], [ -68.552001953125, -51.692001342773438, 0.0 ], [ -68.543998718261719, -51.757999420166016, 0.0 ], [ -68.489997863769531, -51.816001892089844, 0.0 ], [ -68.471000671386719, -51.840999603271484, 0.0 ], [ -68.3489990234375, -51.988998413085938, 0.0 ], [ -68.258003234863281, -52.049999237060547, 0.0 ], [ -68.172996520996094, -52.152000427246094, 0.0 ], [ -68.155998229980469, -52.161998748779297, 0.0 ], [ -68.125, -52.180000305175781, 0.0 ], [ -68.119003295898438, -52.186000823974609, 0.0 ], [ -68.106002807617188, -52.194000244140625, 0.0 ], [ -68.111000061035156, -52.201000213623047, 0.0 ], [ -68.0780029296875, -52.213001251220703, 0.0 ], [ -68.038002014160156, -52.265998840332031, 0.0 ], [ -68.03399658203125, -52.287998199462891, 0.0 ], [ -68.023002624511719, -52.306999206542969, 0.0 ], [ -68.024002075195312, -52.344001770019531, 0.0 ], [ -68.041999816894531, -52.377998352050781, 0.0 ], [ -68.054000854492188, -52.4010009765625, 0.0 ], [ -68.066001892089844, -52.444000244140625, 0.0 ], [ -68.114997863769531, -52.477001190185547, 0.0 ], [ -68.126998901367188, -52.494998931884766, 0.0 ], [ -68.142997741699219, -52.511001586914062, 0.0 ], [ -68.168998718261719, -52.521999359130859, 0.0 ], [ -68.185997009277344, -52.522998809814453, 0.0 ], [ -68.21099853515625, -52.53900146484375, 0.0 ], [ -68.266998291015625, -52.551998138427734, 0.0 ], [ -68.277000427246094, -52.583999633789062, 0.0 ], [ -68.267997741699219, -52.624000549316406, 0.0 ], [ -68.213996887207031, -52.644001007080078, 0.0 ], [ -68.191001892089844, -52.659999847412109, 0.0 ], [ -68.181999206542969, -52.680000305175781, 0.0 ], [ -68.167999267578125, -52.694999694824219, 0.0 ], [ -68.152999877929688, -52.686000823974609, 0.0 ], [ -68.126998901367188, -52.734001159667969, 0.0 ], [ -68.108001708984375, -52.764999389648438, 0.0 ], [ -68.093002319335938, -52.785999298095703, 0.0 ], [ -68.038002014160156, -52.817001342773438, 0.0 ], [ -68.009002685546875, -52.839000701904297, 0.0 ], [ -68.004997253417969, -52.853000640869141, 0.0 ], [ -67.988998413085938, -52.876998901367188, 0.0 ], [ -67.91400146484375, -53.013999938964844, 0.0 ], [ -67.910003662109375, -52.986000061035156, 0.0 ], [ -67.902999877929688, -53.001998901367188, 0.0 ], [ -67.894996643066406, -53.019001007080078, 0.0 ], [ -67.884002685546875, -53.053001403808594, 0.0 ], [ -67.888999938964844, -53.109001159667969, 0.0 ], [ -67.845001220703125, -53.159999847412109, 0.0 ], [ -67.830001831054688, -53.171001434326172, 0.0 ], [ -67.808998107910156, -53.187000274658203, 0.0 ], [ -67.795997619628906, -53.203998565673828, 0.0 ], [ -67.777999877929688, -53.224998474121094, 0.0 ], [ -67.760002136230469, -53.256000518798828, 0.0 ], [ -67.731002807617188, -53.287998199462891, 0.0 ], [ -67.709999084472656, -53.330001831054688, 0.0 ], [ -67.740997314453125, -53.360000610351562, 0.0 ], [ -67.725997924804688, -53.4010009765625, 0.0 ], [ -67.718002319335938, -53.426998138427734, 0.0 ], [ -67.641998291015625, -53.497001647949219, 0.0 ], [ -67.642997741699219, -53.513999938964844, 0.0 ], [ -67.600997924804688, -53.555000305175781, 0.0 ], [ -67.319000244140625, -53.666999816894531, 0.0 ], [ -67.277000427246094, -53.701000213623047, 0.0 ], [ -67.244003295898438, -53.722000122070312, 0.0 ], [ -67.218002319335938, -53.742000579833984, 0.0 ], [ -67.19000244140625, -53.770000457763672, 0.0 ], [ -67.139999389648438, -53.812999725341797, 0.0 ], [ -67.113998413085938, -53.887001037597656, 0.0 ], [ -67.047996520996094, -53.908000946044922, 0.0 ], [ -67.011001586914062, -53.922000885009766, 0.0 ], [ -67.009002685546875, -53.917999267578125, 0.0 ], [ -66.911003112792969, -53.944999694824219, 0.0 ], [ -66.786003112792969, -53.988998413085938, 0.0 ], [ -66.786003112792969, -53.990001678466797, 0.0 ], [ -66.755996704101562, -54.006000518798828, 0.0 ], [ -66.725997924804688, -54.034000396728516, 0.0 ], [ -66.697998046875, -54.046001434326172, 0.0 ], [ -66.672996520996094, -54.053001403808594, 0.0 ], [ -66.632003784179688, -54.074001312255859, 0.0 ], [ -66.597999572753906, -54.109001159667969, 0.0 ], [ -66.508003234863281, -54.139999389648438, 0.0 ], [ -66.462997436523438, -54.166999816894531, 0.0 ], [ -66.402999877929688, -54.203998565673828, 0.0 ], [ -66.369003295898438, -54.238998413085938, 0.0 ], [ -66.331001281738281, -54.249000549316406, 0.0 ], [ -66.281997680664062, -54.265998840332031, 0.0 ], [ -66.23699951171875, -54.296001434326172, 0.0 ], [ -66.195999145507812, -54.318000793457031, 0.0 ], [ -66.150001525878906, -54.338001251220703, 0.0 ], [ -66.045997619628906, -54.382999420166016, 0.0 ], [ -65.985000610351562, -54.410999298095703, 0.0 ], [ -66.0260009765625, -54.38800048828125, 0.0 ], [ -65.971000671386719, -54.395000457763672, 0.0 ], [ -65.836997985839844, -54.432998657226562, 0.0 ], [ -65.804000854492188, -54.423999786376953, 0.0 ], [ -65.732002258300781, -54.422000885009766, 0.0 ], [ -65.656997680664062, -54.438999176025391, 0.0 ], [ -65.601997375488281, -54.436000823974609, 0.0 ], [ -65.543998718261719, -54.433998107910156, 0.0 ], [ -65.523002624511719, -54.437000274658203, 0.0 ], [ -65.467002868652344, -54.423000335693359, 0.0 ], [ -65.446998596191406, -54.423000335693359, 0.0 ], [ -65.397003173828125, -54.419998168945312, 0.0 ], [ -65.292999267578125, -54.423000335693359, 0.0 ], [ -65.252998352050781, -54.429000854492188, 0.0 ], [ -65.194999694824219, -54.423000335693359, 0.0 ], [ -65.15899658203125, -54.426998138427734, 0.0 ], [ -65.094001770019531, -54.428001403808594, 0.0 ], [ -65.044998168945312, -54.442001342773438, 0.0 ], [ -64.997001647949219, -54.446998596191406, 0.0 ], [ -64.994003295898438, -54.456001281738281, 0.0 ], [ -64.96600341796875, -54.463001251220703, 0.0 ], [ -64.867996215820312, -54.505001068115234, 0.0 ], [ -64.801002502441406, -54.53900146484375, 0.0 ], [ -64.804000854492188, -54.567001342773438, 0.0 ], [ -64.7239990234375, -54.561000823974609, 0.0 ], [ -64.633003234863281, -54.550998687744141, 0.0 ], [ -64.583000183105469, -54.522998809814453, 0.0 ], [ -64.512001037597656, -54.528999328613281, 0.0 ], [ -64.449996948242188, -54.493999481201172, 0.0 ], [ -64.379997253417969, -54.477001190185547, 0.0 ], [ -64.329002380371094, -54.477001190185547, 0.0 ], [ -64.26300048828125, -54.470001220703125, 0.0 ], [ -64.054000854492188, -54.465999603271484, 0.0 ], [ -63.999000549316406, -54.481998443603516, 0.0 ], [ -64.009002685546875, -54.485000610351562, 0.0 ], [ -63.983001708984375, -54.487998962402344, 0.0 ], [ -63.942001342773438, -54.501998901367188, 0.0 ], [ -63.874000549316406, -54.506999969482422, 0.0 ], [ -63.810001373291016, -54.525001525878906, 0.0 ], [ -63.754001617431641, -54.525001525878906, 0.0 ], [ -63.724998474121094, -54.529998779296875, 0.0 ], [ -63.680000305175781, -54.535999298095703, 0.0 ], [ -63.644001007080078, -54.548999786376953, 0.0 ], [ -63.5989990234375, -54.558998107910156, 0.0 ], [ -63.569999694824219, -54.581001281738281, 0.0 ], [ -63.549999237060547, -54.590000152587891, 0.0 ], [ -63.518001556396484, -54.605998992919922, 0.0 ], [ -63.506999969482422, -54.622001647949219, 0.0 ], [ -63.479999542236328, -54.652999877929688, 0.0 ], [ -63.478000640869141, -54.674999237060547, 0.0 ], [ -63.469001770019531, -54.705001831054688, 0.0 ], [ -63.474998474121094, -54.734001159667969, 0.0 ], [ -63.4739990234375, -54.754001617431641, 0.0 ], [ -63.474998474121094, -54.773998260498047, 0.0 ], [ -63.471000671386719, -54.791000366210938, 0.0 ], [ -63.479999542236328, -54.814998626708984, 0.0 ], [ -63.486000061035156, -54.831001281738281, 0.0 ], [ -63.518001556396484, -54.860000610351562, 0.0 ], [ -63.571998596191406, -54.919998168945312, 0.0 ], [ -63.599998474121094, -54.933998107910156, 0.0 ], [ -63.632999420166016, -54.944000244140625, 0.0 ], [ -63.673000335693359, -54.959999084472656, 0.0 ], [ -63.708000183105469, -54.970001220703125, 0.0 ], [ -63.839000701904297, -55.012001037597656, 0.0 ], [ -63.814998626708984, -55.009998321533203, 0.0 ], [ -63.881000518798828, -55.015998840332031, 0.0 ], [ -63.939998626708984, -55.027999877929688, 0.0 ], [ -63.997001647949219, -55.078998565673828, 0.0 ], [ -64.003997802734375, -55.050998687744141, 0.0 ], [ -64.117996215820312, -55.069000244140625, 0.0 ], [ -64.264999389648438, -55.080001831054688, 0.0 ], [ -64.574996948242188, -55.091999053955078, 0.0 ], [ -64.694000244140625, -55.11199951171875, 0.0 ], [ -64.778999328613281, -55.108001708984375, 0.0 ], [ -64.802001953125, -55.094001770019531, 0.0 ], [ -64.856002807617188, -55.082000732421875, 0.0 ], [ -64.885002136230469, -55.076999664306641, 0.0 ], [ -64.916999816894531, -55.070999145507812, 0.0 ], [ -64.9219970703125, -55.061000823974609, 0.0 ], [ -64.932998657226562, -55.041999816894531, 0.0 ], [ -64.9739990234375, -55.019001007080078, 0.0 ], [ -65.005996704101562, -55.011001586914062, 0.0 ], [ -65.001998901367188, -55.012001037597656, 0.0 ], [ -65.017997741699219, -55.018001556396484, 0.0 ], [ -65.044998168945312, -55.032001495361328, 0.0 ], [ -65.03900146484375, -55.0260009765625, 0.0 ], [ -65.069000244140625, -55.067001342773438, 0.0 ], [ -65.084999084472656, -55.084999084472656, 0.0 ], [ -65.175003051757812, -55.11199951171875, 0.0 ], [ -65.244003295898438, -55.118000030517578, 0.0 ], [ -65.343002319335938, -55.138999938964844, 0.0 ], [ -65.46099853515625, -55.148998260498047, 0.0 ], [ -65.490997314453125, -55.154998779296875, 0.0 ], [ -65.608001708984375, -55.349998474121094, 0.0 ], [ -65.608001708984375, -56.0, 0.0 ] ] } }
]
}
