{
"type": "FeatureCollection",
"name": "100mt",
"crs": { "type": "name", "properties": { "name": "urn:ogc:def:crs:OGC:1.3:CRS84" } },
"features": [
{ "type": "Feature", "properties": { "id": null, "Name": "Object ID 15", "description": null, "timestamp": null, "begin": null, "end": null, "altitudeMode": null, "tessellate": -1, "extrude": 0, "visibility": -1, "drawOrder": null, "icon": null }, "geometry": { "type": "LineString", "coordinates": [ [ -51.680999755859375, -34.055000305175774, 0.0 ], [ -51.66400146484375, -34.132999420166009, 0.0 ], [ -51.838001251220703, -34.132999420166009, 0.0 ], [ -51.897998809814453, -34.085998535156243, 0.0 ], [ -51.985000610351562, -34.026000976562493, 0.0 ], [ -52.043998718261719, -34.046001434326165, 0.0 ], [ -52.043998718261719, -34.152000427246087, 0.0 ], [ -52.089000701904297, -34.22700119018554, 0.0 ], [ -51.951000213623047, -34.314998626708977, 0.0 ], [ -51.971000671386719, -34.401000976562493, 0.0 ], [ -52.117000579833984, -34.401000976562493, 0.0 ], [ -52.222999572753906, -34.310001373291009, 0.0 ], [ -52.347000122070312, -34.310001373291009, 0.0 ], [ -52.277999877929688, -34.375, 0.0 ], [ -52.222999572753906, -34.478000640869134, 0.0 ], [ -52.410999298095703, -34.499000549316399, 0.0 ], [ -52.410999298095703, -34.617000579833977, 0.0 ], [ -52.525001525878906, -34.723999023437493, 0.0 ], [ -52.525001525878906, -34.698001861572259, 0.0 ], [ -52.525001525878906, -34.821998596191399, 0.0 ], [ -52.498001098632812, -34.869998931884759, 0.0 ], [ -52.777999877929688, -34.945999145507805, 0.0 ], [ -52.859001159667969, -35.005001068115227, 0.0 ], [ -52.912998199462891, -35.217998504638665, 0.0 ], [ -52.912998199462891, -35.396999359130852, 0.0 ], [ -53.071998596191406, -35.541999816894524, 0.0 ], [ -53.21099853515625, -35.655998229980462, 0.0 ], [ -53.395000457763672, -35.726001739501946, 0.0 ], [ -53.541999816894531, -35.810001373291009, 0.0 ], [ -53.615001678466797, -35.956001281738274, 0.0 ], [ -53.837001800537109, -36.140998840332024, 0.0 ], [ -54.004001617431641, -36.294998168945305, 0.0 ], [ -54.157001495361328, -36.441001892089837, 0.0 ], [ -54.134998321533203, -36.57600021362304, 0.0 ], [ -54.344001770019531, -36.57600021362304, 0.0 ], [ -54.5, -36.67499923706054, 0.0 ], [ -54.634998321533203, -36.75199890136718, 0.0 ], [ -54.511001586914062, -36.855998992919915, 0.0 ], [ -54.743999481201172, -36.941001892089837, 0.0 ], [ -54.876998901367188, -37.152000427246087, 0.0 ], [ -54.958999633789062, -37.319999694824212, 0.0 ], [ -55.143001556396484, -37.467998504638665, 0.0 ], [ -55.143001556396484, -37.473999023437493, 0.0 ], [ -55.373001098632812, -37.426998138427727, 0.0 ], [ -55.424999237060547, -37.467998504638665, 0.0 ], [ -55.338001251220703, -37.547000885009759, 0.0 ], [ -55.577999114990234, -37.682998657226555, 0.0 ], [ -55.479000091552734, -37.761001586914055, 0.0 ], [ -55.569000244140625, -37.848999023437493, 0.0 ], [ -55.485000610351562, -37.946998596191399, 0.0 ], [ -55.574001312255859, -38.050998687744134, 0.0 ], [ -55.643001556396484, -38.178001403808587, 0.0 ], [ -55.547000885009766, -38.333999633789055, 0.0 ], [ -55.676998138427734, -38.472999572753899, 0.0 ], [ -55.9010009765625, -38.533000946044915, 0.0 ], [ -55.727001190185547, -38.64899826049804, 0.0 ], [ -55.652999877929688, -38.669998168945305, 0.0 ], [ -55.909999847412109, -38.726001739501946, 0.0 ], [ -56.155998229980469, -38.726001739501946, 0.0 ], [ -56.196998596191406, -38.816001892089837, 0.0 ], [ -55.922000885009766, -38.972000122070305, 0.0 ], [ -55.868999481201172, -39.064998626708977, 0.0 ], [ -55.930000305175781, -39.207000732421868, 0.0 ], [ -56.020000457763672, -39.395999908447259, 0.0 ], [ -56.159000396728516, -39.480998992919915, 0.0 ], [ -56.358001708984375, -39.54999923706054, 0.0 ], [ -56.23699951171875, -39.660999298095696, 0.0 ], [ -56.173000335693359, -39.823001861572259, 0.0 ], [ -56.263999938964844, -39.976001739501946, 0.0 ], [ -56.465000152587891, -40.060001373291009, 0.0 ], [ -56.793998718261719, -40.028999328613274, 0.0 ], [ -57.119998931884766, -40.12699890136718, 0.0 ], [ -57.323001861572266, -40.17499923706054, 0.0 ], [ -57.465999603271484, -40.249000549316399, 0.0 ], [ -57.208000183105469, -40.312000274658196, 0.0 ], [ -56.951999664306641, -40.252998352050774, 0.0 ], [ -56.7239990234375, -40.215000152587884, 0.0 ], [ -56.643001556396484, -40.255001068115227, 0.0 ], [ -56.700000762939453, -40.305000305175774, 0.0 ], [ -56.757999420166016, -40.384998321533196, 0.0 ], [ -56.849998474121094, -40.452999114990227, 0.0 ], [ -56.881999969482422, -40.560001373291009, 0.0 ], [ -56.881999969482422, -40.658000946044915, 0.0 ], [ -57.099998474121094, -40.658000946044915, 0.0 ], [ -57.220001220703125, -40.658000946044915, 0.0 ], [ -57.258998870849609, -40.743999481201165, 0.0 ], [ -57.188999176025391, -40.826999664306634, 0.0 ], [ -57.249000549316406, -41.098999023437493, 0.0 ], [ -57.324001312255859, -41.208999633789055, 0.0 ], [ -57.551998138427734, -41.261001586914055, 0.0 ], [ -57.687000274658203, -41.328998565673821, 0.0 ], [ -57.847000122070312, -41.449001312255852, 0.0 ], [ -57.991001129150391, -41.533000946044915, 0.0 ], [ -58.092998504638672, -41.474998474121087, 0.0 ], [ -58.209999084472656, -41.474998474121087, 0.0 ], [ -58.187999725341797, -41.57600021362304, 0.0 ], [ -58.094001770019531, -41.688999176025384, 0.0 ], [ -58.146999359130859, -41.819000244140618, 0.0 ], [ -58.340999603271484, -41.953998565673821, 0.0 ], [ -58.443000793457031, -42.034999847412102, 0.0 ], [ -58.636001586914062, -42.104000091552727, 0.0 ], [ -58.717998504638672, -42.201999664306634, 0.0 ], [ -58.7760009765625, -42.29100036621093, 0.0 ], [ -59.005001068115234, -42.29100036621093, 0.0 ], [ -59.256999969482422, -42.271999359130852, 0.0 ], [ -59.374000549316406, -42.314998626708977, 0.0 ], [ -59.273998260498047, -42.423000335693352, 0.0 ], [ -59.11199951171875, -42.471000671386712, 0.0 ], [ -59.299999237060547, -42.505001068115227, 0.0 ], [ -59.492000579833984, -42.673999786376946, 0.0 ], [ -59.629001617431641, -42.909999847412102, 0.0 ], [ -59.738998413085938, -42.958999633789055, 0.0 ], [ -59.865001678466797, -42.958999633789055, 0.0 ], [ -59.870998382568359, -42.958999633789055, 0.0 ], [ -59.637001037597656, -42.983001708984368, 0.0 ], [ -59.773998260498047, -43.050998687744134, 0.0 ], [ -59.8489990234375, -43.104999542236321, 0.0 ], [ -59.791000366210938, -43.162998199462884, 0.0 ], [ -59.784999847412109, -43.263999938964837, 0.0 ], [ -59.805000305175781, -43.341999053955071, 0.0 ], [ -60.091999053955078, -43.375, 0.0 ], [ -60.26300048828125, -43.338001251220696, 0.0 ], [ -60.354000091552734, -43.318000793457024, 0.0 ], [ -60.462001800537109, -43.244998931884759, 0.0 ], [ -60.669998168945312, -43.244998931884759, 0.0 ], [ -60.839000701904297, -43.284000396728509, 0.0 ], [ -60.819999694824219, -43.36399841308593, 0.0 ], [ -60.647998809814453, -43.36399841308593, 0.0 ], [ -60.499000549316406, -43.39899826049804, 0.0 ], [ -60.470001220703125, -43.479000091552727, 0.0 ], [ -60.516998291015625, -43.557998657226555, 0.0 ], [ -60.606998443603516, -43.611000061035149, 0.0 ], [ -60.745998382568359, -43.696998596191399, 0.0 ], [ -60.958000183105469, -43.683998107910149, 0.0 ], [ -61.215999603271484, -43.629001617431634, 0.0 ], [ -61.271999359130859, -43.497001647949212, 0.0 ], [ -61.366001129150391, -43.497001647949212, 0.0 ], [ -61.377998352050781, -43.61399841308593, 0.0 ], [ -61.437999725341797, -43.712001800537102, 0.0 ], [ -61.437999725341797, -43.770000457763665, 0.0 ], [ -61.319999694824219, -43.780998229980462, 0.0 ], [ -61.241001129150391, -43.801998138427727, 0.0 ], [ -61.205001831054688, -43.856998443603509, 0.0 ], [ -61.234001159667969, -43.933998107910149, 0.0 ], [ -61.234001159667969, -43.972999572753899, 0.0 ], [ -61.435001373291016, -44.058998107910149, 0.0 ], [ -61.435001373291016, -44.082000732421868, 0.0 ], [ -61.488998413085938, -44.104999542236321, 0.0 ], [ -61.556999206542969, -44.104999542236321, 0.0 ], [ -61.578998565673828, -44.08000183105468, 0.0 ], [ -61.612998962402344, -44.062000274658196, 0.0 ], [ -61.674999237060547, -44.058998107910149, 0.0 ], [ -61.773998260498047, -44.058998107910149, 0.0 ], [ -61.860000610351562, -44.058998107910149, 0.0 ], [ -61.910999298095703, -44.090000152587884, 0.0 ], [ -62.058998107910156, -44.167999267578118, 0.0 ], [ -62.235000610351562, -44.241001129150384, 0.0 ], [ -62.258998870849609, -44.332000732421868, 0.0 ], [ -62.326000213623047, -44.432998657226555, 0.0 ], [ -62.326000213623047, -44.518001556396477, 0.0 ], [ -62.3489990234375, -44.604999542236321, 0.0 ], [ -62.382999420166016, -44.637001037597649, 0.0 ], [ -62.444999694824219, -44.653999328613274, 0.0 ], [ -62.485000610351562, -44.638000488281243, 0.0 ], [ -62.557998657226562, -44.701999664306634, 0.0 ], [ -62.523998260498047, -44.821998596191399, 0.0 ], [ -62.658000946044922, -44.909999847412102, 0.0 ], [ -62.874000549316406, -45.056999206542962, 0.0 ], [ -62.884998321533203, -45.175998687744134, 0.0 ], [ -62.792999267578125, -45.241001129150384, 0.0 ], [ -62.96099853515625, -45.308998107910149, 0.0 ], [ -63.146999359130859, -45.388000488281243, 0.0 ], [ -63.282001495361328, -45.422000885009759, 0.0 ], [ -63.3489990234375, -45.483001708984368, 0.0 ], [ -63.241001129150391, -45.494998931884759, 0.0 ], [ -63.075000762939453, -45.494998931884759, 0.0 ], [ -62.957000732421875, -45.494998931884759, 0.0 ], [ -62.867000579833984, -45.446998596191399, 0.0 ], [ -62.78900146484375, -45.41600036621093, 0.0 ], [ -62.608001708984375, -45.452999114990227, 0.0 ], [ -62.477001190185547, -45.381000518798821, 0.0 ], [ -62.2760009765625, -45.381000518798821, 0.0 ], [ -62.182998657226562, -45.393001556396477, 0.0 ], [ -62.095001220703125, -45.422000885009759, 0.0 ], [ -62.033000946044922, -45.484001159667962, 0.0 ], [ -61.937999725341797, -45.555999755859368, 0.0 ], [ -61.916000366210938, -45.632999420166009, 0.0 ], [ -62.069999694824219, -45.654998779296868, 0.0 ], [ -62.154998779296875, -45.667999267578118, 0.0 ], [ -62.282001495361328, -45.668998718261712, 0.0 ], [ -62.355998992919922, -45.708000183105462, 0.0 ], [ -62.294998168945312, -45.785999298095696, 0.0 ], [ -62.226001739501953, -45.874000549316399, 0.0 ], [ -62.278999328613281, -45.937000274658196, 0.0 ], [ -62.104000091552734, -45.935001373291009, 0.0 ], [ -61.993999481201172, -45.958000183105462, 0.0 ], [ -61.993999481201172, -46.01499938964843, 0.0 ], [ -62.105998992919922, -46.08900070190429, 0.0 ], [ -62.312000274658203, -46.153999328613274, 0.0 ], [ -62.368999481201172, -46.20100021362304, 0.0 ], [ -62.403999328613281, -46.25199890136718, 0.0 ], [ -62.358001708984375, -46.319000244140618, 0.0 ], [ -62.388999938964844, -46.381000518798821, 0.0 ], [ -62.458999633789062, -46.415000915527337, 0.0 ], [ -62.498001098632812, -46.403999328613274, 0.0 ], [ -62.624000549316406, -46.388999938964837, 0.0 ], [ -62.714000701904297, -46.388999938964837, 0.0 ], [ -62.759998321533203, -46.38999938964843, 0.0 ], [ -62.816001892089844, -46.400001525878899, 0.0 ], [ -62.851001739501953, -46.387001037597649, 0.0 ], [ -62.851001739501953, -46.361999511718743, 0.0 ], [ -62.798999786376953, -46.33900070190429, 0.0 ], [ -62.770000457763672, -46.307998657226555, 0.0 ], [ -62.844001770019531, -46.276000976562493, 0.0 ], [ -62.889999389648438, -46.261001586914055, 0.0 ], [ -62.889999389648438, -46.237998962402337, 0.0 ], [ -62.784999847412109, -46.229000091552727, 0.0 ], [ -62.713001251220703, -46.203998565673821, 0.0 ], [ -62.713001251220703, -46.155998229980462, 0.0 ], [ -62.757999420166016, -46.125999450683587, 0.0 ], [ -62.825000762939453, -46.08000183105468, 0.0 ], [ -62.869998931884766, -46.032001495361321, 0.0 ], [ -62.887001037597656, -46.004001617431634, 0.0 ], [ -62.948001861572266, -45.986000061035149, 0.0 ], [ -63.022998809814453, -45.951999664306634, 0.0 ], [ -63.062999725341797, -45.915000915527337, 0.0 ], [ -63.144001007080078, -46.006000518798821, 0.0 ], [ -63.256000518798828, -46.08000183105468, 0.0 ], [ -63.402000427246094, -46.090000152587884, 0.0 ], [ -63.381000518798828, -46.035999298095696, 0.0 ], [ -63.354999542236328, -45.999000549316399, 0.0 ], [ -63.334999084472656, -45.986000061035149, 0.0 ], [ -63.291999816894531, -45.953998565673821, 0.0 ], [ -63.270000457763672, -45.953998565673821, 0.0 ], [ -63.305999755859375, -45.881000518798821, 0.0 ], [ -63.382999420166016, -45.848999023437493, 0.0 ], [ -63.484001159667969, -45.813999176025384, 0.0 ], [ -63.625, -45.810001373291009, 0.0 ], [ -63.625, -45.873001098632805, 0.0 ], [ -63.689998626708984, -45.901000976562493, 0.0 ], [ -63.766998291015625, -45.922000885009759, 0.0 ], [ -63.854000091552734, -45.903999328613274, 0.0 ], [ -63.942001342773438, -45.887001037597649, 0.0 ], [ -64.041999816894531, -45.872001647949212, 0.0 ], [ -64.168998718261719, -45.841999053955071, 0.0 ], [ -64.221000671386719, -45.811000823974602, 0.0 ], [ -64.307998657226562, -45.824001312255852, 0.0 ], [ -64.382003784179688, -45.861000061035149, 0.0 ], [ -64.403999328613281, -45.874000549316399, 0.0 ], [ -64.345001220703125, -45.907001495361321, 0.0 ], [ -64.199996948242188, -45.897998809814446, 0.0 ], [ -64.133003234863281, -45.93799972534179, 0.0 ], [ -64.067001342773438, -45.958000183105462, 0.0 ], [ -63.951999664306641, -45.972999572753899, 0.0 ], [ -63.895000457763672, -45.995998382568352, 0.0 ], [ -63.911998748779297, -46.06700134277343, 0.0 ], [ -63.981998443603516, -46.116001129150384, 0.0 ], [ -64.041999816894531, -46.175998687744134, 0.0 ], [ -64.035003662109375, -46.268001556396477, 0.0 ], [ -63.958999633789062, -46.325000762939446, 0.0 ], [ -63.851001739501953, -46.340999603271477, 0.0 ], [ -63.7760009765625, -46.328998565673821, 0.0 ], [ -63.709999084472656, -46.300998687744134, 0.0 ], [ -63.657001495361328, -46.268001556396477, 0.0 ], [ -63.620998382568359, -46.243999481201165, 0.0 ], [ -63.580001831054688, -46.20100021362304, 0.0 ], [ -63.535999298095703, -46.16600036621093, 0.0 ], [ -63.486000061035156, -46.140998840332024, 0.0 ], [ -63.405998229980469, -46.201999664306634, 0.0 ], [ -63.368999481201172, -46.256999969482415, 0.0 ], [ -63.398998260498047, -46.319000244140618, 0.0 ], [ -63.41400146484375, -46.36399841308593, 0.0 ], [ -63.462001800537109, -46.407001495361321, 0.0 ], [ -63.506000518798828, -46.444000244140618, 0.0 ], [ -63.556999206542969, -46.478000640869134, 0.0 ], [ -63.611000061035156, -46.50199890136718, 0.0 ], [ -63.680000305175781, -46.532001495361321, 0.0 ], [ -63.76300048828125, -46.566001892089837, 0.0 ], [ -63.849998474121094, -46.582000732421868, 0.0 ], [ -63.900001525878906, -46.576999664306634, 0.0 ], [ -63.952999114990234, -46.58900070190429, 0.0 ], [ -63.9739990234375, -46.609001159667962, 0.0 ], [ -63.983001708984375, -46.630001068115227, 0.0 ], [ -63.874000549316406, -46.643001556396477, 0.0 ], [ -63.773998260498047, -46.660999298095696, 0.0 ], [ -63.699001312255859, -46.672000885009759, 0.0 ], [ -63.637001037597656, -46.682998657226555, 0.0 ], [ -63.580001831054688, -46.719001770019524, 0.0 ], [ -63.557998657226562, -46.756999969482415, 0.0 ], [ -63.616001129150391, -46.819999694824212, 0.0 ], [ -63.673000335693359, -46.840999603271477, 0.0 ], [ -63.771999359130859, -46.882999420166009, 0.0 ], [ -63.923000335693359, -46.92499923706054, 0.0 ], [ -64.0260009765625, -46.938999176025384, 0.0 ], [ -64.083999633789062, -46.923999786376946, 0.0 ], [ -64.133003234863281, -46.881000518798821, 0.0 ], [ -64.183998107910156, -46.825000762939446, 0.0 ], [ -64.23699951171875, -46.772998809814446, 0.0 ], [ -64.297996520996094, -46.701999664306634, 0.0 ], [ -64.332000732421875, -46.654998779296868, 0.0 ], [ -64.449996948242188, -46.625, 0.0 ], [ -64.502998352050781, -46.563999176025384, 0.0 ], [ -64.413002014160156, -46.479999542236321, 0.0 ], [ -64.387001037597656, -46.409000396728509, 0.0 ], [ -64.367996215820312, -46.33900070190429, 0.0 ], [ -64.367996215820312, -46.283000946044915, 0.0 ], [ -64.367996215820312, -46.228000640869134, 0.0 ], [ -64.4010009765625, -46.191001892089837, 0.0 ], [ -64.445999145507812, -46.242000579833977, 0.0 ], [ -64.499000549316406, -46.306999206542962, 0.0 ], [ -64.524002075195312, -46.351001739501946, 0.0 ], [ -64.596000671386719, -46.353000640869134, 0.0 ], [ -64.643997192382812, -46.367000579833977, 0.0 ], [ -64.680999755859375, -46.405998229980462, 0.0 ], [ -64.662002563476562, -46.49000167846679, 0.0 ], [ -64.661003112792969, -46.597000122070305, 0.0 ], [ -64.71099853515625, -46.702999114990227, 0.0 ], [ -64.71099853515625, -46.792999267578118, 0.0 ], [ -64.646003723144531, -46.798999786376946, 0.0 ], [ -64.561996459960938, -46.780998229980462, 0.0 ], [ -64.496002197265625, -46.766998291015618, 0.0 ], [ -64.486000061035156, -46.831001281738274, 0.0 ], [ -64.511001586914062, -46.915000915527337, 0.0 ], [ -64.58599853515625, -46.986000061035149, 0.0 ], [ -64.56500244140625, -47.10200119018554, 0.0 ], [ -64.527999877929688, -47.236000061035149, 0.0 ], [ -64.490997314453125, -47.410999298095696, 0.0 ], [ -64.541000366210938, -47.566001892089837, 0.0 ], [ -64.563003540039062, -47.691001892089837, 0.0 ], [ -64.608001708984375, -47.818000793457024, 0.0 ], [ -64.717002868652344, -47.978000640869134, 0.0 ], [ -64.764999389648438, -48.134998321533203, 0.0 ], [ -64.929000854492188, -48.359001159667969, 0.0 ], [ -65.03900146484375, -48.5260009765625, 0.0 ], [ -65.141998291015625, -48.634998321533203, 0.0 ], [ -65.233001708984375, -48.728000640869141, 0.0 ], [ -65.320999145507812, -48.812999725341797, 0.0 ], [ -65.427001953125, -48.888999938964844, 0.0 ], [ -65.672996520996094, -49.041999816894531, 0.0 ], [ -66.024002075195312, -49.233001708984375, 0.0 ], [ -66.136001586914062, -49.298000335693359, 0.0 ], [ -66.274002075195312, -49.337001800537109, 0.0 ], [ -66.4219970703125, -49.361000061035156, 0.0 ], [ -66.498001098632812, -49.359001159667969, 0.0 ], [ -66.639999389648438, -49.359001159667969, 0.0 ], [ -66.515998840332031, -49.423999786376953, 0.0 ], [ -66.426002502441406, -49.441001892089844, 0.0 ], [ -66.334999084472656, -49.505001068115234, 0.0 ], [ -66.195999145507812, -49.571998596191406, 0.0 ], [ -66.068000793457031, -49.590000152587891, 0.0 ], [ -65.9739990234375, -49.620998382568359, 0.0 ], [ -65.882003784179688, -49.63800048828125, 0.0 ], [ -65.819999694824219, -49.667999267578125, 0.0 ], [ -65.88800048828125, -49.706001281738281, 0.0 ], [ -65.93499755859375, -49.749000549316406, 0.0 ], [ -66.012001037597656, -49.806999206542969, 0.0 ], [ -66.071998596191406, -49.856998443603516, 0.0 ], [ -66.107002258300781, -49.900001525878906, 0.0 ], [ -66.123001098632812, -49.933998107910156, 0.0 ], [ -66.234001159667969, -49.987998962402344, 0.0 ], [ -66.183998107910156, -50.006000518798828, 0.0 ], [ -66.086997985839844, -50.007999420166016, 0.0 ], [ -66.003997802734375, -50.016998291015625, 0.0 ], [ -65.880996704101562, -50.016998291015625, 0.0 ], [ -65.790000915527344, -50.046001434326172, 0.0 ], [ -65.682998657226562, -50.066001892089844, 0.0 ], [ -65.58599853515625, -50.097999572753906, 0.0 ], [ -65.488998413085938, -50.133998870849609, 0.0 ], [ -65.402999877929688, -50.186000823974609, 0.0 ], [ -65.3280029296875, -50.220001220703125, 0.0 ], [ -65.246002197265625, -50.28900146484375, 0.0 ], [ -65.166000366210938, -50.347000122070312, 0.0 ], [ -65.056999206542969, -50.382999420166016, 0.0 ], [ -64.933998107910156, -50.429000854492188, 0.0 ], [ -64.847999572753906, -50.470001220703125, 0.0 ], [ -64.896003723144531, -50.494998931884766, 0.0 ], [ -64.972000122070312, -50.521999359130859, 0.0 ], [ -65.068000793457031, -50.568000793457031, 0.0 ], [ -65.169998168945312, -50.58599853515625, 0.0 ], [ -65.295997619628906, -50.616001129150391, 0.0 ], [ -65.380996704101562, -50.640998840332031, 0.0 ], [ -65.509002685546875, -50.695999145507812, 0.0 ], [ -65.625, -50.727001190185547, 0.0 ], [ -65.735000610351562, -50.73699951171875, 0.0 ], [ -65.839996337890625, -50.741001129150391, 0.0 ], [ -65.932998657226562, -50.720001220703125, 0.0 ], [ -66.027000427246094, -50.708000183105469, 0.0 ], [ -66.0780029296875, -50.724998474121094, 0.0 ], [ -66.181999206542969, -50.743000030517578, 0.0 ], [ -66.307998657226562, -50.752998352050781, 0.0 ], [ -66.347999572753906, -50.73699951171875, 0.0 ], [ -66.392997741699219, -50.751998901367188, 0.0 ], [ -66.497001647949219, -50.768001556396484, 0.0 ], [ -66.592002868652344, -50.780998229980469, 0.0 ], [ -66.662002563476562, -50.791999816894531, 0.0 ], [ -66.689002990722656, -50.764999389648438, 0.0 ], [ -66.733001708984375, -50.740001678466797, 0.0 ], [ -66.668998718261719, -50.694000244140625, 0.0 ], [ -66.649002075195312, -50.673000335693359, 0.0 ], [ -66.624000549316406, -50.6510009765625, 0.0 ], [ -66.597000122070312, -50.633998870849609, 0.0 ], [ -66.573997497558594, -50.592998504638672, 0.0 ], [ -66.595001220703125, -50.560001373291016, 0.0 ], [ -66.593002319335938, -50.533000946044922, 0.0 ], [ -66.616996765136719, -50.504001617431641, 0.0 ], [ -66.648002624511719, -50.4739990234375, 0.0 ], [ -66.676002502441406, -50.453998565673828, 0.0 ], [ -66.749000549316406, -50.436000823974609, 0.0 ], [ -66.782997131347656, -50.451000213623047, 0.0 ], [ -66.872001647949219, -50.458000183105469, 0.0 ], [ -66.898002624511719, -50.4739990234375, 0.0 ], [ -66.927001953125, -50.493999481201172, 0.0 ], [ -66.972999572753906, -50.509998321533203, 0.0 ], [ -67.021003723144531, -50.533000946044922, 0.0 ], [ -67.073997497558594, -50.551998138427734, 0.0 ], [ -67.132003784179688, -50.578998565673828, 0.0 ], [ -67.19000244140625, -50.604000091552734, 0.0 ], [ -67.21600341796875, -50.633998870849609, 0.0 ], [ -67.21600341796875, -50.678001403808594, 0.0 ], [ -67.189002990722656, -50.713001251220703, 0.0 ], [ -67.127998352050781, -50.726001739501953, 0.0 ], [ -67.079002380371094, -50.716999053955078, 0.0 ], [ -67.025001525878906, -50.729000091552734, 0.0 ], [ -66.981002807617188, -50.745998382568359, 0.0 ], [ -66.954002380371094, -50.759998321533203, 0.0 ], [ -66.928001403808594, -50.742000579833984, 0.0 ], [ -66.893997192382812, -50.756000518798828, 0.0 ], [ -66.858001708984375, -50.780998229980469, 0.0 ], [ -66.882003784179688, -50.797000885009766, 0.0 ], [ -66.913002014160156, -50.826999664306641, 0.0 ], [ -66.961997985839844, -50.865001678466797, 0.0 ], [ -67.009002685546875, -50.890998840332031, 0.0 ], [ -67.045997619628906, -50.917999267578125, 0.0 ], [ -67.112998962402344, -50.976001739501953, 0.0 ], [ -67.138999938964844, -51.007999420166016, 0.0 ], [ -67.206001281738281, -51.055999755859375, 0.0 ], [ -67.242996215820312, -51.087001800537109, 0.0 ], [ -67.337997436523438, -51.0989990234375, 0.0 ], [ -67.36199951171875, -51.179000854492188, 0.0 ], [ -67.319999694824219, -51.199001312255859, 0.0 ], [ -67.279998779296875, -51.234001159667969, 0.0 ], [ -67.227996826171875, -51.272998809814453, 0.0 ], [ -67.180000305175781, -51.300998687744141, 0.0 ], [ -67.1510009765625, -51.342998504638672, 0.0 ], [ -67.211997985839844, -51.387001037597656, 0.0 ], [ -67.286003112792969, -51.439998626708984, 0.0 ], [ -67.360000610351562, -51.471000671386719, 0.0 ], [ -67.399002075195312, -51.506999969482422, 0.0 ], [ -67.462997436523438, -51.542999267578125, 0.0 ], [ -67.441001892089844, -51.619998931884766, 0.0 ], [ -67.3489990234375, -51.672000885009766, 0.0 ], [ -67.285003662109375, -51.698001861572266, 0.0 ], [ -67.0260009765625, -51.726001739501953, 0.0 ], [ -66.938003540039062, -51.752998352050781, 0.0 ], [ -66.86199951171875, -51.816001892089844, 0.0 ], [ -66.885002136230469, -51.866001129150391, 0.0 ], [ -66.84100341796875, -51.925998687744141, 0.0 ], [ -66.801002502441406, -51.949001312255859, 0.0 ], [ -66.678001403808594, -51.9739990234375, 0.0 ], [ -66.549003601074219, -51.991001129150391, 0.0 ], [ -66.524002075195312, -52.019001007080078, 0.0 ], [ -66.492996215820312, -52.051998138427734, 0.0 ], [ -66.513999938964844, -52.080001831054688, 0.0 ], [ -66.543998718261719, -52.104999542236328, 0.0 ], [ -66.61199951171875, -52.133998870849609, 0.0 ], [ -66.637001037597656, -52.162998199462891, 0.0 ], [ -66.679000854492188, -52.224998474121094, 0.0 ], [ -66.706001281738281, -52.303001403808594, 0.0 ], [ -66.678001403808594, -52.338001251220703, 0.0 ], [ -66.629997253417969, -52.354999542236328, 0.0 ], [ -66.613998413085938, -52.402000427246094, 0.0 ], [ -66.592002868652344, -52.451999664306641, 0.0 ], [ -66.632003784179688, -52.507999420166016, 0.0 ], [ -66.71099853515625, -52.555999755859375, 0.0 ], [ -66.803001403808594, -52.583000183105469, 0.0 ], [ -66.822998046875, -52.622001647949219, 0.0 ], [ -66.773002624511719, -52.688999176025391, 0.0 ], [ -66.741996765136719, -52.715999603271484, 0.0 ], [ -66.694000244140625, -52.751998901367188, 0.0 ], [ -66.656997680664062, -52.798999786376953, 0.0 ], [ -66.613998413085938, -52.849998474121094, 0.0 ], [ -66.564002990722656, -52.9010009765625, 0.0 ], [ -66.519996643066406, -52.938999176025391, 0.0 ], [ -66.488998413085938, -52.976001739501953, 0.0 ], [ -66.399002075195312, -53.012001037597656, 0.0 ], [ -66.399002075195312, -53.029998779296875, 0.0 ], [ -66.370002746582031, -53.062000274658203, 0.0 ], [ -66.342002868652344, -53.094001770019531, 0.0 ], [ -66.310997009277344, -53.133998870849609, 0.0 ], [ -66.279998779296875, -53.181999206542969, 0.0 ], [ -66.236000061035156, -53.217998504638672, 0.0 ], [ -66.212997436523438, -53.259998321533203, 0.0 ], [ -66.177001953125, -53.305999755859375, 0.0 ], [ -66.139999389648438, -53.41400146484375, 0.0 ], [ -66.084999084472656, -53.469001770019531, 0.0 ], [ -66.042999267578125, -53.513999938964844, 0.0 ], [ -65.990997314453125, -53.619998931884766, 0.0 ], [ -65.96600341796875, -53.667999267578125, 0.0 ], [ -65.892997741699219, -53.729999542236328, 0.0 ], [ -65.864997863769531, -53.761001586914062, 0.0 ], [ -65.769996643066406, -53.808998107910156, 0.0 ], [ -65.700996398925781, -53.840000152587891, 0.0 ], [ -65.626998901367188, -53.869998931884766, 0.0 ], [ -65.597000122070312, -53.918998718261719, 0.0 ], [ -65.657997131347656, -53.977001190185547, 0.0 ], [ -65.665000915527344, -54.014999389648438, 0.0 ], [ -65.629997253417969, -54.062999725341797, 0.0 ], [ -65.5780029296875, -54.120998382568359, 0.0 ], [ -65.524002075195312, -54.152999877929688, 0.0 ], [ -65.471000671386719, -54.178001403808594, 0.0 ], [ -65.389999389648438, -54.205001831054688, 0.0 ], [ -65.317001342773438, -54.231998443603516, 0.0 ], [ -65.257003784179688, -54.300998687744141, 0.0 ], [ -65.277999877929688, -54.337001800537109, 0.0 ], [ -65.282997131347656, -54.393001556396484, 0.0 ], [ -65.222000122070312, -54.409999847412109, 0.0 ], [ -65.174003601074219, -54.439998626708984, 0.0 ], [ -65.089996337890625, -54.451999664306641, 0.0 ], [ -65.013999938964844, -54.464000701904297, 0.0 ], [ -64.94000244140625, -54.494998931884766, 0.0 ], [ -64.906997680664062, -54.532001495361328, 0.0 ], [ -64.863998413085938, -54.571998596191406, 0.0 ], [ -64.824996948242188, -54.597000122070312, 0.0 ], [ -64.751998901367188, -54.618999481201172, 0.0 ], [ -64.657997131347656, -54.639999389648438, 0.0 ], [ -64.609001159667969, -54.660999298095703, 0.0 ], [ -64.603996276855469, -54.51300048828125, 0.0 ], [ -64.554000854492188, -54.492000579833984, 0.0 ], [ -64.455001831054688, -54.478000640869141, 0.0 ], [ -64.350997924804688, -54.467998504638672, 0.0 ], [ -64.248001098632812, -54.478000640869141, 0.0 ], [ -64.122001647949219, -54.488998413085938, 0.0 ], [ -64.01300048828125, -54.513999938964844, 0.0 ], [ -63.964000701904297, -54.534000396728516, 0.0 ], [ -63.875, -54.581001281738281, 0.0 ], [ -63.770000457763672, -54.592998504638672, 0.0 ], [ -63.691001892089844, -54.618999481201172, 0.0 ], [ -63.610000610351562, -54.650001525878906, 0.0 ], [ -63.683998107910156, -54.701999664306641, 0.0 ], [ -63.744998931884766, -54.741001129150391, 0.0 ], [ -63.842998504638672, -54.78900146484375, 0.0 ], [ -63.868000030517578, -54.805999755859375, 0.0 ], [ -63.990001678466797, -54.813999176025391, 0.0 ], [ -64.097999572753906, -54.825000762939453, 0.0 ], [ -64.166999816894531, -54.8489990234375, 0.0 ], [ -64.252998352050781, -54.861000061035156, 0.0 ], [ -64.380996704101562, -54.872001647949219, 0.0 ], [ -64.461997985839844, -54.881999969482422, 0.0 ], [ -64.543998718261719, -54.900001525878906, 0.0 ], [ -64.605003356933594, -54.916999816894531, 0.0 ], [ -64.665000915527344, -54.929000854492188, 0.0 ], [ -64.775001525878906, -54.930999755859375, 0.0 ], [ -64.833000183105469, -54.916999816894531, 0.0 ], [ -64.880996704101562, -54.886001586914062, 0.0 ], [ -64.9010009765625, -54.868999481201172, 0.0 ], [ -64.925003051757812, -54.847999572753906, 0.0 ], [ -64.970001220703125, -54.839000701904297, 0.0 ], [ -65.031997680664062, -54.851001739501953, 0.0 ], [ -65.108001708984375, -54.866001129150391, 0.0 ], [ -65.1510009765625, -54.882999420166016, 0.0 ], [ -65.202003479003906, -54.902999877929688, 0.0 ], [ -65.25, -54.893001556396484, 0.0 ], [ -65.299003601074219, -54.910999298095703, 0.0 ], [ -65.345001220703125, -54.933998107910156, 0.0 ], [ -65.413002014160156, -54.957000732421875, 0.0 ], [ -65.497001647949219, -54.988998413085938, 0.0 ], [ -65.558998107910156, -55.016998291015625, 0.0 ], [ -65.641998291015625, -55.030998229980469, 0.0 ], [ -65.725997924804688, -55.043998718261719, 0.0 ], [ -65.802001953125, -55.030998229980469, 0.0 ], [ -65.851997375488281, -55.013999938964844, 0.0 ], [ -65.904998779296875, -55.033000946044922, 0.0 ], [ -65.968002319335938, -55.043998718261719, 0.0 ], [ -66.024002075195312, -55.058998107910156, 0.0 ], [ -66.106002807617188, -55.042999267578125, 0.0 ], [ -66.1719970703125, -55.055000305175781, 0.0 ], [ -66.202003479003906, -55.076999664306641, 0.0 ], [ -66.234001159667969, -55.108001708984375, 0.0 ], [ -66.208999633789062, -55.161998748779297, 0.0 ], [ -66.194000244140625, -55.243999481201172, 0.0 ], [ -66.174003601074219, -55.307998657226562, 0.0 ], [ -66.204002380371094, -55.354000091552734, 0.0 ], [ -66.220001220703125, -55.397998809814453, 0.0 ], [ -66.262001037597656, -55.451000213623047, 0.0 ], [ -66.278999328613281, -55.479999542236328, 0.0 ], [ -66.299003601074219, -55.523998260498047, 0.0 ], [ -66.31500244140625, -55.5989990234375, 0.0 ], [ -66.336997985839844, -55.611000061035156, 0.0 ], [ -66.426002502441406, -55.623001098632812, 0.0 ], [ -66.474998474121094, -55.631000518798828, 0.0 ], [ -66.435997009277344, -55.658000946044922, 0.0 ], [ -66.459999084472656, -55.709999084472656, 0.0 ], [ -66.495002746582031, -55.735000610351562, 0.0 ], [ -66.540000915527344, -55.766998291015625, 0.0 ], [ -66.600997924804688, -55.821998596191406, 0.0 ], [ -66.672996520996094, -55.875, 0.0 ], [ -66.721000671386719, -55.902999877929688, 0.0 ], [ -66.764999389648438, -55.929000854492188, 0.0 ], [ -66.867996215820312, -55.980998992919922, 0.0 ] ] } }
]
}
