{
"type": "FeatureCollection",
"name": "200burdwood",
"crs": { "type": "name", "properties": { "name": "urn:ogc:def:crs:OGC:1.3:CRS84" } },
"features": [
{ "type": "Feature", "properties": { "id": null, "Name": "Object ID 15", "description": null, "timestamp": null, "begin": null, "end": null, "altitudeMode": null, "tessellate": -1, "extrude": 0, "visibility": -1, "drawOrder": null, "icon": null }, "geometry": { "type": "LineString", "coordinates": [ [ -61.88330078125, -54.166698455810547, 0.0 ], [ -61.816699981689453, -54.099998474121094, 0.0 ], [ -61.799999237060547, -54.099998474121094, 0.0 ], [ -61.75, -54.066699981689453, 0.0 ], [ -61.700000762939453, -54.049999237060547, 0.0 ], [ -61.61669921875, -54.0, 0.0 ], [ -61.599998474121094, -53.983299255371094, 0.0 ], [ -61.599998474121094, -53.916698455810547, 0.0 ], [ -61.583301544189453, -53.86669921875, 0.0 ], [ -61.516700744628906, -53.849998474121094, 0.0 ], [ -61.466701507568359, -53.86669921875, 0.0 ], [ -61.5, -53.916698455810547, 0.0 ], [ -61.466701507568359, -53.950000762939453, 0.0 ], [ -61.416698455810547, -53.950000762939453, 0.0 ], [ -61.333301544189453, -53.933300018310547, 0.0 ], [ -61.25, -53.900001525878906, 0.0 ], [ -61.166698455810547, -53.88330078125, 0.0 ], [ -61.083301544189453, -53.849998474121094, 0.0 ], [ -61.0, -53.799999237060547, 0.0 ], [ -60.916698455810547, -53.75, 0.0 ], [ -60.833301544189453, -53.733299255371094, 0.0 ], [ -60.75, -53.716598510742188, 0.0 ], [ -60.666698455810547, -53.733299255371094, 0.0 ], [ -60.583301544189453, -53.766700744628906, 0.0 ], [ -60.5, -53.799999237060547, 0.0 ], [ -60.416698455810547, -53.833301544189453, 0.0 ], [ -60.333301544189453, -53.849998474121094, 0.0 ], [ -60.25, -53.88330078125, 0.0 ], [ -60.166698455810547, -53.900001525878906, 0.0 ], [ -60.083301544189453, -53.916698455810547, 0.0 ], [ -60.0, -53.916698455810547, 0.0 ], [ -59.916698455810547, -53.916698455810547, 0.0 ], [ -59.833301544189453, -53.933300018310547, 0.0 ], [ -59.75, -53.933300018310547, 0.0 ], [ -59.666698455810547, -53.933300018310547, 0.0 ], [ -59.583301544189453, -53.935001373291016, 0.0 ], [ -59.5, -53.936698913574219, 0.0 ], [ -59.416698455810547, -53.9375, 0.0 ], [ -59.333301544189453, -53.938301086425781, 0.0 ], [ -59.25, -53.933300018310547, 0.0 ], [ -59.166698455810547, -53.916698455810547, 0.0 ], [ -59.233299255371094, -53.833301544189453, 0.0 ], [ -59.166698455810547, -53.766700744628906, 0.0 ], [ -59.083301544189453, -53.770000457763672, 0.0 ], [ -59.0, -53.816699981689453, 0.0 ], [ -58.916698455810547, -53.86669921875, 0.0 ], [ -58.833301544189453, -53.916698455810547, 0.0 ], [ -58.75, -53.950000762939453, 0.0 ], [ -58.666698455810547, -53.966701507568359, 0.0 ], [ -58.583301544189453, -53.974998474121094, 0.0 ], [ -58.5, -53.983299255371094, 0.0 ], [ -58.416698455810547, -53.99169921875, 0.0 ], [ -58.333301544189453, -54.0, 0.0 ], [ -58.25, -54.025001525878906, 0.0 ], [ -58.166698455810547, -54.033298492431641, 0.0 ], [ -58.083301544189453, -54.049999237060547, 0.0 ], [ -58.0, -54.058300018310547, 0.0 ], [ -57.916698455810547, -54.083301544189453, 0.0 ], [ -57.833301544189453, -54.099998474121094, 0.0 ], [ -57.75, -54.11669921875, 0.0 ], [ -57.666698455810547, -54.13330078125, 0.0 ], [ -57.583301544189453, -54.166698455810547, 0.0 ], [ -57.5, -54.200000762939453, 0.0 ], [ -57.416698455810547, -54.233299255371094, 0.0 ], [ -57.333301544189453, -54.333301544189453, 0.0 ], [ -57.25, -54.5, 0.0 ], [ -57.166698455810547, -54.5, 0.0 ], [ -57.25, -54.666698455810547, 0.0 ], [ -57.333301544189453, -54.833301544189453, 0.0 ], [ -57.416698455810547, -54.86669921875, 0.0 ], [ -57.5, -54.875, 0.0 ], [ -57.5, -54.86669921875, 0.0 ], [ -57.583301544189453, -54.875, 0.0 ], [ -57.666698455810547, -54.858299255371094, 0.0 ], [ -57.75, -54.849998474121094, 0.0 ], [ -57.833301544189453, -54.833301544189453, 0.0 ], [ -57.916698455810547, -54.816699981689453, 0.0 ], [ -58.0, -54.799999237060547, 0.0 ], [ -58.083301544189453, -54.783298492431641, 0.0 ], [ -58.166698455810547, -54.75, 0.0 ], [ -58.25, -54.716701507568359, 0.0 ], [ -58.333301544189453, -54.700000762939453, 0.0 ], [ -58.416698455810547, -54.683300018310547, 0.0 ], [ -58.5, -54.683300018310547, 0.0 ], [ -58.583301544189453, -54.691699981689453, 0.0 ], [ -58.666698455810547, -54.700000762939453, 0.0 ], [ -58.75, -54.716701507568359, 0.0 ], [ -58.833301544189453, -54.724998474121094, 0.0 ], [ -58.916698455810547, -54.74169921875, 0.0 ], [ -59.0, -54.74169921875, 0.0 ], [ -59.083301544189453, -54.75, 0.0 ], [ -59.166698455810547, -54.75830078125, 0.0 ], [ -59.25, -54.766700744628906, 0.0 ], [ -59.333301544189453, -54.775001525878906, 0.0 ], [ -59.416698455810547, -54.783298492431641, 0.0 ], [ -59.5, -54.799999237060547, 0.0 ], [ -59.583301544189453, -54.816699981689453, 0.0 ], [ -59.666698455810547, -54.849998474121094, 0.0 ], [ -59.75, -54.858299255371094, 0.0 ], [ -59.833301544189453, -54.825000762939453, 0.0 ], [ -59.916698455810547, -54.75830078125, 0.0 ], [ -60.0, -54.75, 0.0 ], [ -60.083301544189453, -54.74169921875, 0.0 ], [ -60.166698455810547, -54.74169921875, 0.0 ], [ -60.25, -54.75, 0.0 ], [ -60.333301544189453, -54.75, 0.0 ], [ -60.416698455810547, -54.75830078125, 0.0 ], [ -60.5, -54.75830078125, 0.0 ], [ -60.583301544189453, -54.766700744628906, 0.0 ], [ -60.666698455810547, -54.783298492431641, 0.0 ], [ -60.75, -54.783298492431641, 0.0 ], [ -60.833301544189453, -54.783298492431641, 0.0 ], [ -60.916698455810547, -54.783298492431641, 0.0 ], [ -61.0, -54.75, 0.0 ], [ -61.083301544189453, -54.724998474121094, 0.0 ], [ -61.166698455810547, -54.708301544189453, 0.0 ], [ -61.25, -54.683300018310547, 0.0 ], [ -61.333301544189453, -54.650001525878906, 0.0 ], [ -61.416698455810547, -54.63330078125, 0.0 ], [ -61.5, -54.61669921875, 0.0 ], [ -61.583301544189453, -54.583301544189453, 0.0 ], [ -61.61669921875, -54.549999237060547, 0.0 ], [ -61.5, -54.333301544189453, 0.0 ], [ -61.466701507568359, -54.283298492431641, 0.0 ], [ -61.533298492431641, -54.216701507568359, 0.0 ], [ -61.583301544189453, -54.200000762939453, 0.0 ], [ -61.666698455810547, -54.200000762939453, 0.0 ], [ -61.75, -54.200000762939453, 0.0 ], [ -61.833301544189453, -54.183300018310547, 0.0 ], [ -61.88330078125, -54.166698455810547, 0.0 ] ] } }
]
}
