{
"type": "FeatureCollection",
"name": "100burdwood",
"crs": { "type": "name", "properties": { "name": "urn:ogc:def:crs:OGC:1.3:CRS84" } },
"features": [
{ "type": "Feature", "properties": { "id": null, "Name": "Object ID 15", "description": null, "timestamp": null, "begin": null, "end": null, "altitudeMode": null, "tessellate": -1, "extrude": 0, "visibility": -1, "drawOrder": null, "icon": null }, "geometry": { "type": "LineString", "coordinates": [ [ -60.799999237060547, -54.13330078125, 0.0 ], [ -60.75, -54.066699981689453, 0.0 ], [ -60.700000762939453, -54.025001525878906, 0.0 ], [ -60.666698455810547, -54.00830078125, 0.0 ], [ -60.650001525878906, -54.0, 0.0 ], [ -60.583301544189453, -54.0, 0.0 ], [ -60.5, -54.016700744628906, 0.0 ], [ -60.416698455810547, -54.038299560546875, 0.0 ], [ -60.333301544189453, -54.058300018310547, 0.0 ], [ -60.25, -54.071701049804688, 0.0 ], [ -60.166698455810547, -54.071701049804688, 0.0 ], [ -60.083301544189453, -54.071701049804688, 0.0 ], [ -60.0, -54.069999694824219, 0.0 ], [ -59.916698455810547, -54.075000762939453, 0.0 ], [ -59.833301544189453, -54.083301544189453, 0.0 ], [ -59.75, -54.088298797607422, 0.0 ], [ -59.666698455810547, -54.099998474121094, 0.0 ], [ -59.583301544189453, -54.11669921875, 0.0 ], [ -59.5, -54.125, 0.0 ], [ -59.416698455810547, -54.13330078125, 0.0 ], [ -59.333301544189453, -54.141700744628906, 0.0 ], [ -59.25, -54.150001525878906, 0.0 ], [ -59.166698455810547, -54.166698455810547, 0.0 ], [ -59.083301544189453, -54.200000762939453, 0.0 ], [ -59.0, -54.244998931884766, 0.0 ], [ -58.916698455810547, -54.283298492431641, 0.0 ], [ -58.833301544189453, -54.303298950195312, 0.0 ], [ -58.75, -54.313301086425781, 0.0 ], [ -58.666698455810547, -54.299999237060547, 0.0 ], [ -58.583301544189453, -54.284999847412109, 0.0 ], [ -58.5, -54.266700744628906, 0.0 ], [ -58.416698455810547, -54.25, 0.0 ], [ -58.333301544189453, -54.24169921875, 0.0 ], [ -58.25, -54.236698150634766, 0.0 ], [ -58.166698455810547, -54.24169921875, 0.0 ], [ -58.083301544189453, -54.243301391601562, 0.0 ], [ -58.0, -54.25, 0.0 ], [ -57.916698455810547, -54.25830078125, 0.0 ], [ -57.833301544189453, -54.276699066162109, 0.0 ], [ -57.75, -54.296699523925781, 0.0 ], [ -57.666698455810547, -54.341701507568359, 0.0 ], [ -57.700000762939453, -54.408298492431641, 0.0 ], [ -57.75, -54.416698455810547, 0.0 ], [ -57.833301544189453, -54.433300018310547, 0.0 ], [ -57.916698455810547, -54.436698913574219, 0.0 ], [ -58.0, -54.438301086425781, 0.0 ], [ -58.083301544189453, -54.430000305175781, 0.0 ], [ -58.166698455810547, -54.423301696777344, 0.0 ], [ -58.25, -54.419998168945312, 0.0 ], [ -58.333301544189453, -54.418300628662109, 0.0 ], [ -58.416698455810547, -54.421699523925781, 0.0 ], [ -58.5, -54.43170166015625, 0.0 ], [ -58.583301544189453, -54.43170166015625, 0.0 ], [ -58.666698455810547, -54.436698913574219, 0.0 ], [ -58.75, -54.435001373291016, 0.0 ], [ -58.833301544189453, -54.441699981689453, 0.0 ], [ -58.916698455810547, -54.436698913574219, 0.0 ], [ -59.0, -54.433300018310547, 0.0 ], [ -59.083301544189453, -54.424999237060547, 0.0 ], [ -59.166698455810547, -54.430000305175781, 0.0 ], [ -59.25, -54.458301544189453, 0.0 ], [ -59.291698455810547, -54.496700286865234, 0.0 ], [ -59.333301544189453, -54.541698455810547, 0.0 ], [ -59.416698455810547, -54.575000762939453, 0.0 ], [ -59.5, -54.583301544189453, 0.0 ], [ -59.583301544189453, -54.586700439453125, 0.0 ], [ -59.666698455810547, -54.586700439453125, 0.0 ], [ -59.75, -54.586700439453125, 0.0 ], [ -59.833301544189453, -54.584999084472656, 0.0 ], [ -59.916698455810547, -54.588298797607422, 0.0 ], [ -60.0, -54.593299865722656, 0.0 ], [ -60.083301544189453, -54.595001220703125, 0.0 ], [ -60.166698455810547, -54.593299865722656, 0.0 ], [ -60.25, -54.590000152587891, 0.0 ], [ -60.333301544189453, -54.584999084472656, 0.0 ], [ -60.416698455810547, -54.575000762939453, 0.0 ], [ -60.5, -54.553298950195312, 0.0 ], [ -60.583301544189453, -54.496700286865234, 0.0 ], [ -60.625, -54.363300323486328, 0.0 ], [ -60.666698455810547, -54.299999237060547, 0.0 ], [ -60.708301544189453, -54.255001068115234, 0.0 ], [ -60.75, -54.215000152587891, 0.0 ], [ -60.791698455810547, -54.183300018310547, 0.0 ], [ -60.799999237060547, -54.13330078125, 0.0 ] ] } }
]
}
