{
"type": "FeatureCollection",
"name": "100malv",
"crs": { "type": "name", "properties": { "name": "urn:ogc:def:crs:OGC:1.3:CRS84" } },
"features": [
{ "type": "Feature", "properties": { "id": null, "Name": "Object ID 15", "description": null, "timestamp": null, "begin": null, "end": null, "altitudeMode": null, "tessellate": -1, "extrude": 0, "visibility": -1, "drawOrder": null, "icon": null }, "geometry": { "type": "LineString", "coordinates": [ [ -59.726001739501953, -50.992000579833984, 0.0 ], [ -59.805999755859375, -50.992000579833984, 0.0 ], [ -59.865001678466797, -50.992000579833984, 0.0 ], [ -59.903999328613281, -50.992000579833984, 0.0 ], [ -60.009998321533203, -50.992000579833984, 0.0 ], [ -60.071998596191406, -51.011001586914062, 0.0 ], [ -60.104000091552734, -50.991001129150391, 0.0 ], [ -60.215000152587891, -50.991001129150391, 0.0 ], [ -60.279998779296875, -50.972000122070312, 0.0 ], [ -60.313999176025391, -50.943000793457031, 0.0 ], [ -60.366001129150391, -50.943000793457031, 0.0 ], [ -60.433998107910156, -50.943000793457031, 0.0 ], [ -60.499000549316406, -50.890998840332031, 0.0 ], [ -60.560001373291016, -50.875, 0.0 ], [ -60.615001678466797, -50.851001739501953, 0.0 ], [ -60.674999237060547, -50.831001281738281, 0.0 ], [ -60.73699951171875, -50.831001281738281, 0.0 ], [ -60.785999298095703, -50.831001281738281, 0.0 ], [ -60.851001739501953, -50.831001281738281, 0.0 ], [ -60.909000396728516, -50.847000122070312, 0.0 ], [ -60.952999114990234, -50.847000122070312, 0.0 ], [ -61.018001556396484, -50.873001098632812, 0.0 ], [ -61.067001342773438, -50.873001098632812, 0.0 ], [ -61.11199951171875, -50.903999328613281, 0.0 ], [ -61.176998138427734, -50.903999328613281, 0.0 ], [ -61.238998413085938, -50.918998718261719, 0.0 ], [ -61.291999816894531, -50.918998718261719, 0.0 ], [ -61.291999816894531, -50.937000274658203, 0.0 ], [ -61.353000640869141, -50.937000274658203, 0.0 ], [ -61.381999969482422, -50.951000213623047, 0.0 ], [ -61.441001892089844, -50.951000213623047, 0.0 ], [ -61.441001892089844, -50.978000640869141, 0.0 ], [ -61.484001159667969, -51.001998901367188, 0.0 ], [ -61.530998229980469, -51.016998291015625, 0.0 ], [ -61.554000854492188, -51.049999237060547, 0.0 ], [ -61.574001312255859, -51.070999145507812, 0.0 ], [ -61.574001312255859, -51.105998992919922, 0.0 ], [ -61.574001312255859, -51.127998352050781, 0.0 ], [ -61.574001312255859, -51.145000457763672, 0.0 ], [ -61.574001312255859, -51.160999298095703, 0.0 ], [ -61.547000885009766, -51.180999755859375, 0.0 ], [ -61.547000885009766, -51.214000701904297, 0.0 ], [ -61.547000885009766, -51.247001647949219, 0.0 ], [ -61.547000885009766, -51.286998748779297, 0.0 ], [ -61.573001861572266, -51.316001892089844, 0.0 ], [ -61.573001861572266, -51.344001770019531, 0.0 ], [ -61.573001861572266, -51.380001068115234, 0.0 ], [ -61.573001861572266, -51.422000885009766, 0.0 ], [ -61.573001861572266, -51.448001861572266, 0.0 ], [ -61.542999267578125, -51.463001251220703, 0.0 ], [ -61.506999969482422, -51.463001251220703, 0.0 ], [ -61.472000122070312, -51.480998992919922, 0.0 ], [ -61.430999755859375, -51.480998992919922, 0.0 ], [ -61.345001220703125, -51.465999603271484, 0.0 ], [ -61.311000823974609, -51.456001281738281, 0.0 ], [ -61.270000457763672, -51.437000274658203, 0.0 ], [ -61.21099853515625, -51.437000274658203, 0.0 ], [ -61.181999206542969, -51.437000274658203, 0.0 ], [ -61.152999877929688, -51.457000732421875, 0.0 ], [ -61.125, -51.477001190185547, 0.0 ], [ -61.125, -51.498001098632812, 0.0 ], [ -61.166000366210938, -51.516998291015625, 0.0 ], [ -61.193000793457031, -51.541999816894531, 0.0 ], [ -61.215000152587891, -51.566001892089844, 0.0 ], [ -61.251998901367188, -51.581001281738281, 0.0 ], [ -61.291000366210938, -51.599998474121094, 0.0 ], [ -61.340999603271484, -51.617000579833984, 0.0 ], [ -61.365001678466797, -51.617000579833984, 0.0 ], [ -61.400001525878906, -51.632999420166016, 0.0 ], [ -61.433998107910156, -51.647998809814453, 0.0 ], [ -61.458000183105469, -51.661998748779297, 0.0 ], [ -61.477001190185547, -51.672000885009766, 0.0 ], [ -61.499000549316406, -51.685001373291016, 0.0 ], [ -61.549999237060547, -51.700000762939453, 0.0 ], [ -61.549999237060547, -51.728000640869141, 0.0 ], [ -61.563999176025391, -51.743999481201172, 0.0 ], [ -61.563999176025391, -51.763999938964844, 0.0 ], [ -61.563999176025391, -51.782001495361328, 0.0 ], [ -61.548000335693359, -51.798999786376953, 0.0 ], [ -61.548000335693359, -51.814998626708984, 0.0 ], [ -61.548000335693359, -51.833000183105469, 0.0 ], [ -61.548000335693359, -51.8489990234375, 0.0 ], [ -61.525001525878906, -51.8489990234375, 0.0 ], [ -61.525001525878906, -51.884998321533203, 0.0 ], [ -61.487998962402344, -51.911998748779297, 0.0 ], [ -61.458000183105469, -51.930000305175781, 0.0 ], [ -61.415000915527344, -51.926998138427734, 0.0 ], [ -61.370998382568359, -51.926998138427734, 0.0 ], [ -61.319000244140625, -51.950000762939453, 0.0 ], [ -61.28900146484375, -51.964000701904297, 0.0 ], [ -61.240001678466797, -51.980998992919922, 0.0 ], [ -61.206001281738281, -51.980998992919922, 0.0 ], [ -61.171001434326172, -51.980998992919922, 0.0 ], [ -61.171001434326172, -52.005001068115234, 0.0 ], [ -61.196998596191406, -52.020000457763672, 0.0 ], [ -61.229000091552734, -52.060001373291016, 0.0 ], [ -61.26300048828125, -52.097000122070312, 0.0 ], [ -61.26300048828125, -52.119998931884766, 0.0 ], [ -61.26300048828125, -52.139999389648438, 0.0 ], [ -61.26300048828125, -52.167999267578125, 0.0 ], [ -61.26300048828125, -52.187999725341797, 0.0 ], [ -61.26300048828125, -52.220001220703125, 0.0 ], [ -61.180999755859375, -52.237998962402344, 0.0 ], [ -61.160999298095703, -52.270999908447266, 0.0 ], [ -61.099998474121094, -52.270999908447266, 0.0 ], [ -61.068000793457031, -52.313999176025391, 0.0 ], [ -61.014999389648438, -52.327999114990234, 0.0 ], [ -60.967998504638672, -52.327999114990234, 0.0 ], [ -60.936000823974609, -52.341999053955078, 0.0 ], [ -60.902000427246094, -52.370998382568359, 0.0 ], [ -60.873001098632812, -52.388999938964844, 0.0 ], [ -60.813999176025391, -52.390998840332031, 0.0 ], [ -60.78900146484375, -52.390998840332031, 0.0 ], [ -60.761001586914062, -52.4010009765625, 0.0 ], [ -60.722999572753906, -52.415000915527344, 0.0 ], [ -60.693000793457031, -52.430999755859375, 0.0 ], [ -60.652000427246094, -52.449001312255859, 0.0 ], [ -60.603000640869141, -52.449001312255859, 0.0 ], [ -60.560001373291016, -52.449001312255859, 0.0 ], [ -60.514999389648438, -52.435001373291016, 0.0 ], [ -60.487998962402344, -52.419998168945312, 0.0 ], [ -60.429000854492188, -52.419998168945312, 0.0 ], [ -60.389999389648438, -52.419998168945312, 0.0 ], [ -60.3489990234375, -52.419998168945312, 0.0 ], [ -60.312999725341797, -52.419998168945312, 0.0 ], [ -60.312999725341797, -52.435001373291016, 0.0 ], [ -60.268001556396484, -52.435001373291016, 0.0 ], [ -60.234001159667969, -52.446998596191406, 0.0 ], [ -60.206001281738281, -52.464000701904297, 0.0 ], [ -60.157001495361328, -52.4739990234375, 0.0 ], [ -60.125, -52.491001129150391, 0.0 ], [ -60.097999572753906, -52.504001617431641, 0.0 ], [ -60.068000793457031, -52.519001007080078, 0.0 ], [ -60.037998199462891, -52.533000946044922, 0.0 ], [ -59.984001159667969, -52.533000946044922, 0.0 ], [ -59.948001861572266, -52.533000946044922, 0.0 ], [ -59.915000915527344, -52.547000885009766, 0.0 ], [ -59.867000579833984, -52.547000885009766, 0.0 ], [ -59.817001342773438, -52.561000823974609, 0.0 ], [ -59.782001495361328, -52.561000823974609, 0.0 ], [ -59.731998443603516, -52.561000823974609, 0.0 ], [ -59.699001312255859, -52.561000823974609, 0.0 ], [ -59.645000457763672, -52.561000823974609, 0.0 ], [ -59.645000457763672, -52.577999114990234, 0.0 ], [ -59.612998962402344, -52.577999114990234, 0.0 ], [ -59.58599853515625, -52.577999114990234, 0.0 ], [ -59.550998687744141, -52.577999114990234, 0.0 ], [ -59.520999908447266, -52.589000701904297, 0.0 ], [ -59.487998962402344, -52.604000091552734, 0.0 ], [ -59.443000793457031, -52.604000091552734, 0.0 ], [ -59.403999328613281, -52.629001617431641, 0.0 ], [ -59.402000427246094, -52.6510009765625, 0.0 ], [ -59.402000427246094, -52.672000885009766, 0.0 ], [ -59.402000427246094, -52.698001861572266, 0.0 ], [ -59.402000427246094, -52.722999572753906, 0.0 ], [ -59.376998901367188, -52.734001159667969, 0.0 ], [ -59.376998901367188, -52.751998901367188, 0.0 ], [ -59.376998901367188, -52.779998779296875, 0.0 ], [ -59.347000122070312, -52.799999237060547, 0.0 ], [ -59.319999694824219, -52.799999237060547, 0.0 ], [ -59.287998199462891, -52.812999725341797, 0.0 ], [ -59.266998291015625, -52.796001434326172, 0.0 ], [ -59.235000610351562, -52.777999877929688, 0.0 ], [ -59.208000183105469, -52.766998291015625, 0.0 ], [ -59.179000854492188, -52.752998352050781, 0.0 ], [ -59.153999328613281, -52.742000579833984, 0.0 ], [ -59.119998931884766, -52.729000091552734, 0.0 ], [ -59.092998504638672, -52.719001770019531, 0.0 ], [ -59.062000274658203, -52.705001831054688, 0.0 ], [ -59.035999298095703, -52.693000793457031, 0.0 ], [ -59.014999389648438, -52.680000305175781, 0.0 ], [ -58.992000579833984, -52.667999267578125, 0.0 ], [ -58.966999053955078, -52.657001495361328, 0.0 ], [ -58.942001342773438, -52.644001007080078, 0.0 ], [ -58.917999267578125, -52.631999969482422, 0.0 ], [ -58.894001007080078, -52.618999481201172, 0.0 ], [ -58.868000030517578, -52.606998443603516, 0.0 ], [ -58.840999603271484, -52.594001770019531, 0.0 ], [ -58.819999694824219, -52.582000732421875, 0.0 ], [ -58.803001403808594, -52.569999694824219, 0.0 ], [ -58.784000396728516, -52.557998657226562, 0.0 ], [ -58.76300048828125, -52.547000885009766, 0.0 ], [ -58.743999481201172, -52.534999847412109, 0.0 ], [ -58.720001220703125, -52.571998596191406, 0.0 ], [ -58.688999176025391, -52.553001403808594, 0.0 ], [ -58.662998199462891, -52.533000946044922, 0.0 ], [ -58.639999389648438, -52.513999938964844, 0.0 ], [ -58.620998382568359, -52.498001098632812, 0.0 ], [ -58.588001251220703, -52.4739990234375, 0.0 ], [ -58.562000274658203, -52.452999114990234, 0.0 ], [ -58.562000274658203, -52.437000274658203, 0.0 ], [ -58.562000274658203, -52.417999267578125, 0.0 ], [ -58.562000274658203, -52.4010009765625, 0.0 ], [ -58.541000366210938, -52.387001037597656, 0.0 ], [ -58.519001007080078, -52.362998962402344, 0.0 ], [ -58.493000030517578, -52.345001220703125, 0.0 ], [ -58.466999053955078, -52.326000213623047, 0.0 ], [ -58.441001892089844, -52.305999755859375, 0.0 ], [ -58.416999816894531, -52.286998748779297, 0.0 ], [ -58.390998840332031, -52.270999908447266, 0.0 ], [ -58.36199951171875, -52.255001068115234, 0.0 ], [ -58.36199951171875, -52.291000366210938, 0.0 ], [ -58.312999725341797, -52.291000366210938, 0.0 ], [ -58.284999847412109, -52.291000366210938, 0.0 ], [ -58.257999420166016, -52.303001403808594, 0.0 ], [ -58.2239990234375, -52.327999114990234, 0.0 ], [ -58.2239990234375, -52.339000701904297, 0.0 ], [ -58.194999694824219, -52.339000701904297, 0.0 ], [ -58.194999694824219, -52.327999114990234, 0.0 ], [ -58.159000396728516, -52.312000274658203, 0.0 ], [ -58.132999420166016, -52.296001434326172, 0.0 ], [ -58.106998443603516, -52.2760009765625, 0.0 ], [ -58.082000732421875, -52.255001068115234, 0.0 ], [ -58.060001373291016, -52.243999481201172, 0.0 ], [ -58.041999816894531, -52.208999633789062, 0.0 ], [ -58.020999908447266, -52.192001342773438, 0.0 ], [ -57.98699951171875, -52.173999786376953, 0.0 ], [ -57.942001342773438, -52.159000396728516, 0.0 ], [ -57.915000915527344, -52.13800048828125, 0.0 ], [ -57.88800048828125, -52.084999084472656, 0.0 ], [ -57.88800048828125, -52.066001892089844, 0.0 ], [ -57.925998687744141, -52.041999816894531, 0.0 ], [ -57.902000427246094, -52.021999359130859, 0.0 ], [ -57.869998931884766, -52.006000518798828, 0.0 ], [ -57.833000183105469, -51.991001129150391, 0.0 ], [ -57.806999206542969, -51.977001190185547, 0.0 ], [ -57.763999938964844, -51.962001800537109, 0.0 ], [ -57.722999572753906, -51.946998596191406, 0.0 ], [ -57.680000305175781, -51.931999206542969, 0.0 ], [ -57.646999359130859, -51.916000366210938, 0.0 ], [ -57.650001525878906, -51.900001525878906, 0.0 ], [ -57.636001586914062, -51.873001098632812, 0.0 ], [ -57.609001159667969, -51.852001190185547, 0.0 ], [ -57.587001800537109, -51.830001831054688, 0.0 ], [ -57.563999176025391, -51.807998657226562, 0.0 ], [ -57.562000274658203, -51.766998291015625, 0.0 ], [ -57.555000305175781, -51.749000549316406, 0.0 ], [ -57.527999877929688, -51.729999542236328, 0.0 ], [ -57.502998352050781, -51.699001312255859, 0.0 ], [ -57.477001190185547, -51.676998138427734, 0.0 ], [ -57.456001281738281, -51.662998199462891, 0.0 ], [ -57.435001373291016, -51.6510009765625, 0.0 ], [ -57.408000946044922, -51.629001617431641, 0.0 ], [ -57.41400146484375, -51.599998474121094, 0.0 ], [ -57.41400146484375, -51.577999114990234, 0.0 ], [ -57.41400146484375, -51.558998107910156, 0.0 ], [ -57.41400146484375, -51.523998260498047, 0.0 ], [ -57.439998626708984, -51.505001068115234, 0.0 ], [ -57.463001251220703, -51.453998565673828, 0.0 ], [ -57.481998443603516, -51.441001892089844, 0.0 ], [ -57.533000946044922, -51.409999847412109, 0.0 ], [ -57.548999786376953, -51.389999389648438, 0.0 ], [ -57.576999664306641, -51.368000030517578, 0.0 ], [ -57.631000518798828, -51.331001281738281, 0.0 ], [ -57.652999877929688, -51.307998657226562, 0.0 ], [ -57.685001373291016, -51.284000396728516, 0.0 ], [ -57.763999938964844, -51.259998321533203, 0.0 ], [ -57.826999664306641, -51.241001129150391, 0.0 ], [ -57.933998107910156, -51.220001220703125, 0.0 ], [ -57.985000610351562, -51.207000732421875, 0.0 ], [ -58.040000915527344, -51.173999786376953, 0.0 ], [ -58.162998199462891, -51.153999328613281, 0.0 ], [ -58.192001342773438, -51.153999328613281, 0.0 ], [ -58.231998443603516, -51.153999328613281, 0.0 ], [ -58.263999938964844, -51.138999938964844, 0.0 ], [ -58.326000213623047, -51.119998931884766, 0.0 ], [ -58.386001586914062, -51.119998931884766, 0.0 ], [ -58.429000854492188, -51.118999481201172, 0.0 ], [ -58.465999603271484, -51.118999481201172, 0.0 ], [ -58.532001495361328, -51.118999481201172, 0.0 ], [ -58.583999633789062, -51.118999481201172, 0.0 ], [ -58.646999359130859, -51.137001037597656, 0.0 ], [ -58.682998657226562, -51.137001037597656, 0.0 ], [ -58.735000610351562, -51.137001037597656, 0.0 ], [ -58.758998870849609, -51.152000427246094, 0.0 ], [ -58.818000793457031, -51.166999816894531, 0.0 ], [ -58.851001739501953, -51.187000274658203, 0.0 ], [ -58.902000427246094, -51.187000274658203, 0.0 ], [ -58.935001373291016, -51.187000274658203, 0.0 ], [ -58.964000701904297, -51.166999816894531, 0.0 ], [ -59.049999237060547, -51.147998809814453, 0.0 ], [ -59.146999359130859, -51.127998352050781, 0.0 ], [ -59.252998352050781, -51.095001220703125, 0.0 ], [ -59.298000335693359, -51.095001220703125, 0.0 ], [ -59.333000183105469, -51.075000762939453, 0.0 ], [ -59.376998901367188, -51.053001403808594, 0.0 ], [ -59.455001831054688, -51.035999298095703, 0.0 ], [ -59.541000366210938, -51.009998321533203, 0.0 ], [ -59.629001617431641, -50.98699951171875, 0.0 ], [ -59.666999816894531, -50.992000579833984, 0.0 ] ] } }
]
}
