{
"type": "FeatureCollection",
"name": "200mt",
"crs": { "type": "name", "properties": { "name": "urn:ogc:def:crs:OGC:1.3:CRS84" } },
"features": [
{ "type": "Feature", "properties": { "id": null, "Name": "Object ID 15", "description": null, "timestamp": null, "begin": null, "end": null, "altitudeMode": null, "tessellate": -1, "extrude": 0, "visibility": -1, "drawOrder": null, "icon": null }, "geometry": { "type": "LineString", "coordinates": [ [ -51.452999114990234, -34.044998168945305, 0.0 ], [ -51.581001281738281, -34.140998840332024, 0.0 ], [ -51.703998565673828, -34.215000152587884, 0.0 ], [ -51.834999084472656, -34.180000305175774, 0.0 ], [ -51.902999877929688, -34.168998718261712, 0.0 ], [ -51.957000732421875, -34.206001281738274, 0.0 ], [ -51.907001495361328, -34.29100036621093, 0.0 ], [ -51.840000152587891, -34.380001068115227, 0.0 ], [ -51.886001586914062, -34.456001281738274, 0.0 ], [ -52.016998291015625, -34.476001739501946, 0.0 ], [ -52.067001342773438, -34.616001129150384, 0.0 ], [ -52.176998138427734, -34.67499923706054, 0.0 ], [ -52.208999633789062, -34.729999542236321, 0.0 ], [ -52.347999572753906, -34.83900070190429, 0.0 ], [ -52.248001098632812, -34.99000167846679, 0.0 ], [ -52.221000671386719, -35.062000274658196, 0.0 ], [ -52.330001831054688, -35.12699890136718, 0.0 ], [ -52.527000427246094, -35.12699890136718, 0.0 ], [ -52.622001647949219, -35.12699890136718, 0.0 ], [ -52.622001647949219, -35.287998199462884, 0.0 ], [ -52.674999237060547, -35.396999359130852, 0.0 ], [ -52.757999420166016, -35.513999938964837, 0.0 ], [ -52.88800048828125, -35.583000183105462, 0.0 ], [ -52.951999664306641, -35.681999206542962, 0.0 ], [ -52.987998962402344, -35.800998687744134, 0.0 ], [ -53.083000183105469, -35.861000061035149, 0.0 ], [ -53.152999877929688, -35.96400070190429, 0.0 ], [ -53.320999145507812, -36.090000152587884, 0.0 ], [ -53.472999572753906, -36.20100021362304, 0.0 ], [ -53.631000518798828, -36.280998229980462, 0.0 ], [ -53.812000274658203, -36.460998535156243, 0.0 ], [ -53.881000518798828, -36.585998535156243, 0.0 ], [ -53.881000518798828, -36.687000274658196, 0.0 ], [ -53.868000030517578, -36.748001098632805, 0.0 ], [ -53.944000244140625, -36.719001770019524, 0.0 ], [ -54.058998107910156, -36.722000122070305, 0.0 ], [ -54.2239990234375, -36.900001525878899, 0.0 ], [ -54.328998565673828, -37.08000183105468, 0.0 ], [ -54.537998199462891, -37.187000274658196, 0.0 ], [ -54.631000518798828, -37.349998474121087, 0.0 ], [ -54.703998565673828, -37.480998992919915, 0.0 ], [ -54.703998565673828, -37.616001129150384, 0.0 ], [ -54.943000793457031, -37.687000274658196, 0.0 ], [ -55.036998748779297, -37.776000976562493, 0.0 ], [ -55.183998107910156, -37.952999114990227, 0.0 ], [ -55.301998138427734, -38.195999145507805, 0.0 ], [ -55.381999969482422, -38.375999450683587, 0.0 ], [ -55.449001312255859, -38.587001800537102, 0.0 ], [ -55.449001312255859, -38.819999694824212, 0.0 ], [ -55.578998565673828, -38.869998931884759, 0.0 ], [ -55.791999816894531, -38.772998809814446, 0.0 ], [ -55.936000823974609, -38.83000183105468, 0.0 ], [ -55.738998413085938, -38.909000396728509, 0.0 ], [ -55.637001037597656, -39.007999420166009, 0.0 ], [ -55.672000885009766, -39.145999908447259, 0.0 ], [ -55.769001007080078, -39.278999328613274, 0.0 ], [ -55.865001678466797, -39.467998504638665, 0.0 ], [ -55.902999877929688, -39.74000167846679, 0.0 ], [ -56.081001281738281, -39.960998535156243, 0.0 ], [ -56.229000091552734, -40.060001373291009, 0.0 ], [ -56.449001312255859, -40.176998138427727, 0.0 ], [ -56.449001312255859, -40.349998474121087, 0.0 ], [ -56.618999481201172, -40.444999694824212, 0.0 ], [ -56.763999938964844, -40.527000427246087, 0.0 ], [ -56.674999237060547, -40.659999847412102, 0.0 ], [ -56.783000946044922, -40.729000091552727, 0.0 ], [ -57.03900146484375, -40.743000030517571, 0.0 ], [ -57.03900146484375, -40.881000518798821, 0.0 ], [ -57.03900146484375, -41.008998870849602, 0.0 ], [ -57.165000915527344, -41.123001098632805, 0.0 ], [ -57.342998504638672, -41.27799987792968, 0.0 ], [ -57.404998779296875, -41.395999908447259, 0.0 ], [ -57.599998474121094, -41.414001464843743, 0.0 ], [ -57.705001831054688, -41.534999847412102, 0.0 ], [ -57.818000793457031, -41.698001861572259, 0.0 ], [ -57.997001647949219, -41.805000305175774, 0.0 ], [ -57.9739990234375, -41.94200134277343, 0.0 ], [ -58.044998168945312, -42.095001220703118, 0.0 ], [ -58.109001159667969, -42.230998992919915, 0.0 ], [ -58.145000457763672, -42.318000793457024, 0.0 ], [ -58.390998840332031, -42.164001464843743, 0.0 ], [ -58.534999847412109, -42.226001739501946, 0.0 ], [ -58.617000579833984, -42.328998565673821, 0.0 ], [ -58.875, -42.380001068115227, 0.0 ], [ -58.941001892089844, -42.513000488281243, 0.0 ], [ -58.941001892089844, -42.691001892089837, 0.0 ], [ -58.941001892089844, -42.784999847412102, 0.0 ], [ -59.094001770019531, -42.840999603271477, 0.0 ], [ -59.157001495361328, -42.935001373291009, 0.0 ], [ -59.056999206542969, -43.056999206542962, 0.0 ], [ -59.196998596191406, -43.16199874877929, 0.0 ], [ -59.280998229980469, -43.31299972534179, 0.0 ], [ -59.470001220703125, -43.479999542236321, 0.0 ], [ -59.566001892089844, -43.638000488281243, 0.0 ], [ -59.641998291015625, -43.796001434326165, 0.0 ], [ -59.733001708984375, -43.916999816894524, 0.0 ], [ -59.733001708984375, -43.916999816894524, 0.0 ], [ -59.678001403808594, -44.025001525878899, 0.0 ], [ -59.608001708984375, -44.082000732421868, 0.0 ], [ -59.573001861572266, -44.138999938964837, 0.0 ], [ -59.570999145507812, -44.180999755859368, 0.0 ], [ -59.691001892089844, -44.236999511718743, 0.0 ], [ -59.775001525878906, -44.307998657226555, 0.0 ], [ -59.854000091552734, -44.375999450683587, 0.0 ], [ -59.942001342773438, -44.439998626708977, 0.0 ], [ -59.942001342773438, -44.494998931884759, 0.0 ], [ -59.891998291015625, -44.534000396728509, 0.0 ], [ -59.902000427246094, -44.608001708984368, 0.0 ], [ -59.917999267578125, -44.641998291015618, 0.0 ], [ -59.863998413085938, -44.694999694824212, 0.0 ], [ -59.865001678466797, -44.75, 0.0 ], [ -59.865001678466797, -44.81700134277343, 0.0 ], [ -59.903999328613281, -44.868000030517571, 0.0 ], [ -59.867000579833984, -44.923000335693352, 0.0 ], [ -59.866001129150391, -45.000999450683587, 0.0 ], [ -59.916000366210938, -45.050998687744134, 0.0 ], [ -59.933998107910156, -45.117000579833977, 0.0 ], [ -59.980998992919922, -45.224998474121087, 0.0 ], [ -60.0, -45.310001373291009, 0.0 ], [ -60.034999847412109, -45.386001586914055, 0.0 ], [ -59.992000579833984, -45.45500183105468, 0.0 ], [ -60.053001403808594, -45.515998840332024, 0.0 ], [ -60.067001342773438, -45.569999694824212, 0.0 ], [ -60.097000122070312, -45.653999328613274, 0.0 ], [ -60.108001708984375, -45.706001281738274, 0.0 ], [ -60.106998443603516, -45.73899841308593, 0.0 ], [ -60.064998626708984, -45.776000976562493, 0.0 ], [ -60.113998413085938, -45.821998596191399, 0.0 ], [ -60.180000305175781, -45.810001373291009, 0.0 ], [ -60.2239990234375, -45.79999923706054, 0.0 ], [ -60.277999877929688, -45.840999603271477, 0.0 ], [ -60.234001159667969, -45.887001037597649, 0.0 ], [ -60.215999603271484, -45.951999664306634, 0.0 ], [ -60.229999542236328, -46.035999298095696, 0.0 ], [ -60.262001037597656, -46.118999481201165, 0.0 ], [ -60.306999206542969, -46.176998138427727, 0.0 ], [ -60.249000549316406, -46.256999969482415, 0.0 ], [ -60.247001647949219, -46.325000762939446, 0.0 ], [ -60.265998840332031, -46.415000915527337, 0.0 ], [ -60.282001495361328, -46.463001251220696, 0.0 ], [ -60.3489990234375, -46.521999359130852, 0.0 ], [ -60.394001007080078, -46.625999450683587, 0.0 ], [ -60.46099853515625, -46.710998535156243, 0.0 ], [ -60.554000854492188, -46.754001617431634, 0.0 ], [ -60.671001434326172, -46.766998291015618, 0.0 ], [ -60.76300048828125, -46.782001495361321, 0.0 ], [ -60.830001831054688, -46.803001403808587, 0.0 ], [ -60.870998382568359, -46.881000518798821, 0.0 ], [ -60.911998748779297, -46.959999084472649, 0.0 ], [ -60.967998504638672, -47.030998229980462, 0.0 ], [ -60.994998931884766, -47.110000610351555, 0.0 ], [ -61.033000946044922, -47.198001861572259, 0.0 ], [ -61.033000946044922, -47.280998229980462, 0.0 ], [ -60.988998413085938, -47.356998443603509, 0.0 ], [ -61.043998718261719, -47.441001892089837, 0.0 ], [ -61.050998687744141, -47.521999359130852, 0.0 ], [ -61.027999877929688, -47.591999053955071, 0.0 ], [ -61.000999450683594, -47.680000305175774, 0.0 ], [ -60.972000122070312, -47.745998382568352, 0.0 ], [ -60.992000579833984, -47.819000244140618, 0.0 ], [ -61.076000213623047, -47.87699890136718, 0.0 ], [ -61.123001098632812, -47.976001739501946, 0.0 ], [ -61.140998840332031, -48.055000305175781, 0.0 ], [ -61.143001556396484, -48.131999969482422, 0.0 ], [ -61.095001220703125, -48.217998504638672, 0.0 ], [ -61.0260009765625, -48.291000366210938, 0.0 ], [ -60.992000579833984, -48.333000183105469, 0.0 ], [ -61.011001586914062, -48.384998321533203, 0.0 ], [ -61.034000396728516, -48.416999816894531, 0.0 ], [ -61.063999176025391, -48.476001739501953, 0.0 ], [ -61.063999176025391, -48.541000366210938, 0.0 ], [ -61.063999176025391, -48.599998474121094, 0.0 ], [ -61.063999176025391, -48.681999206542969, 0.0 ], [ -61.03900146484375, -48.772998809814453, 0.0 ], [ -60.965000152587891, -48.83599853515625, 0.0 ], [ -60.898998260498047, -48.893001556396484, 0.0 ], [ -60.858001708984375, -48.950000762939453, 0.0 ], [ -60.783000946044922, -48.993999481201172, 0.0 ], [ -60.783000946044922, -49.063999176025391, 0.0 ], [ -60.737998962402344, -49.124000549316406, 0.0 ], [ -60.719001770019531, -49.181999206542969, 0.0 ], [ -60.685001373291016, -49.326999664306641, 0.0 ], [ -60.622001647949219, -49.402000427246094, 0.0 ], [ -60.606998443603516, -49.497001647949219, 0.0 ], [ -60.588001251220703, -49.588001251220703, 0.0 ], [ -60.588001251220703, -49.673000335693359, 0.0 ], [ -60.5, -49.740001678466797, 0.0 ], [ -60.480998992919922, -49.775001525878906, 0.0 ], [ -60.459999084472656, -49.786998748779297, 0.0 ], [ -60.395000457763672, -49.799999237060547, 0.0 ], [ -60.305000305175781, -49.787998199462891, 0.0 ], [ -60.2239990234375, -49.775001525878906, 0.0 ], [ -60.103000640869141, -49.764999389648438, 0.0 ], [ -59.919998168945312, -49.777000427246094, 0.0 ], [ -59.826000213623047, -49.786998748779297, 0.0 ], [ -59.695999145507812, -49.805999755859375, 0.0 ], [ -59.615001678466797, -49.827999114990234, 0.0 ], [ -59.544998168945312, -49.839000701904297, 0.0 ], [ -59.500999450683594, -49.860000610351562, 0.0 ], [ -59.456001281738281, -49.868000030517578, 0.0 ], [ -59.396999359130859, -49.889999389648438, 0.0 ], [ -59.367000579833984, -49.896999359130859, 0.0 ], [ -59.325000762939453, -49.923999786376953, 0.0 ], [ -59.219001770019531, -49.944000244140625, 0.0 ], [ -59.126998901367188, -49.958999633789062, 0.0 ], [ -58.903999328613281, -50.000999450683594, 0.0 ], [ -58.71099853515625, -50.048000335693359, 0.0 ], [ -58.553001403808594, -50.106998443603516, 0.0 ], [ -58.438999176025391, -50.179000854492188, 0.0 ], [ -58.318000793457031, -50.224998474121094, 0.0 ], [ -58.280998229980469, -50.28900146484375, 0.0 ], [ -58.201000213623047, -50.323001861572266, 0.0 ], [ -58.062000274658203, -50.393001556396484, 0.0 ], [ -57.942001342773438, -50.492000579833984, 0.0 ], [ -57.636001586914062, -50.562999725341797, 0.0 ], [ -57.592998504638672, -50.599998474121094, 0.0 ], [ -57.4739990234375, -50.674999237060547, 0.0 ], [ -57.326000213623047, -50.755001068115234, 0.0 ], [ -57.297000885009766, -50.83599853515625, 0.0 ], [ -57.297000885009766, -50.950000762939453, 0.0 ], [ -57.269001007080078, -51.032001495361328, 0.0 ], [ -57.229000091552734, -51.075000762939453, 0.0 ], [ -57.171001434326172, -51.191001892089844, 0.0 ], [ -57.245998382568359, -51.379001617431641, 0.0 ], [ -57.326000213623047, -51.452999114990234, 0.0 ], [ -57.326000213623047, -51.570999145507812, 0.0 ], [ -57.397998809814453, -51.686000823974609, 0.0 ], [ -57.478000640869141, -51.793998718261719, 0.0 ], [ -57.426998138427734, -51.895999908447266, 0.0 ], [ -57.555999755859375, -51.972000122070312, 0.0 ], [ -57.696998596191406, -52.004001617431641, 0.0 ], [ -57.731998443603516, -52.145000457763672, 0.0 ], [ -57.731998443603516, -52.258998870849609, 0.0 ], [ -58.03900146484375, -52.353000640869141, 0.0 ], [ -58.237998962402344, -52.474998474121094, 0.0 ], [ -58.407001495361328, -52.556999206542969, 0.0 ], [ -58.662998199462891, -52.665000915527344, 0.0 ], [ -58.722999572753906, -52.741001129150391, 0.0 ], [ -58.837001800537109, -52.859001159667969, 0.0 ], [ -59.049999237060547, -53.0, 0.0 ], [ -59.132999420166016, -53.050998687744141, 0.0 ], [ -59.305999755859375, -53.117000579833984, 0.0 ], [ -59.376998901367188, -53.076000213623047, 0.0 ], [ -59.351001739501953, -53.020999908447266, 0.0 ], [ -59.326000213623047, -52.965000152587891, 0.0 ], [ -59.486000061035156, -52.965000152587891, 0.0 ], [ -59.641998291015625, -53.076000213623047, 0.0 ], [ -59.867000579833984, -52.993999481201172, 0.0 ], [ -60.048000335693359, -53.040000915527344, 0.0 ], [ -60.129001617431641, -52.96099853515625, 0.0 ], [ -60.252998352050781, -52.866001129150391, 0.0 ], [ -60.3489990234375, -52.783000946044922, 0.0 ], [ -60.519001007080078, -52.687000274658203, 0.0 ], [ -60.701000213623047, -52.596000671386719, 0.0 ], [ -60.918998718261719, -52.456001281738281, 0.0 ], [ -61.0989990234375, -52.417999267578125, 0.0 ], [ -61.220001220703125, -52.324001312255859, 0.0 ], [ -61.395000457763672, -52.263999938964844, 0.0 ], [ -61.578998565673828, -52.143001556396484, 0.0 ], [ -61.847000122070312, -52.054000854492188, 0.0 ], [ -62.001998901367188, -51.923999786376953, 0.0 ], [ -61.936000823974609, -51.832000732421875, 0.0 ], [ -62.057998657226562, -51.792999267578125, 0.0 ], [ -62.066001892089844, -51.662998199462891, 0.0 ], [ -62.186000823974609, -51.573001861572266, 0.0 ], [ -62.312000274658203, -51.550998687744141, 0.0 ], [ -62.437000274658203, -51.431999206542969, 0.0 ], [ -62.512001037597656, -51.396999359130859, 0.0 ], [ -62.693000793457031, -51.48699951171875, 0.0 ], [ -62.842998504638672, -51.53900146484375, 0.0 ], [ -62.931999206542969, -51.583000183105469, 0.0 ], [ -62.931999206542969, -51.674999237060547, 0.0 ], [ -62.88800048828125, -51.71099853515625, 0.0 ], [ -62.88800048828125, -51.904998779296875, 0.0 ], [ -62.955001831054688, -51.944999694824219, 0.0 ], [ -63.175998687744141, -51.944999694824219, 0.0 ], [ -63.2239990234375, -51.828998565673828, 0.0 ], [ -63.258998870849609, -51.76300048828125, 0.0 ], [ -63.449001312255859, -51.812000274658203, 0.0 ], [ -63.558998107910156, -51.875, 0.0 ], [ -63.641998291015625, -51.903999328613281, 0.0 ], [ -63.641998291015625, -51.969001770019531, 0.0 ], [ -63.358001708984375, -52.027999877929688, 0.0 ], [ -63.352001190185547, -52.075000762939453, 0.0 ], [ -63.478000640869141, -52.104999542236328, 0.0 ], [ -63.616001129150391, -52.104999542236328, 0.0 ], [ -63.703998565673828, -52.13800048828125, 0.0 ], [ -64.040000915527344, -52.282001495361328, 0.0 ], [ -64.166000366210938, -52.352001190185547, 0.0 ], [ -64.268997192382812, -52.562000274658203, 0.0 ], [ -64.587997436523438, -52.702999114990234, 0.0 ], [ -64.587997436523438, -52.814998626708984, 0.0 ], [ -64.595001220703125, -52.908000946044922, 0.0 ], [ -64.595001220703125, -53.027000427246094, 0.0 ], [ -64.595001220703125, -53.118000030517578, 0.0 ], [ -64.567001342773438, -53.187000274658203, 0.0 ], [ -64.516998291015625, -53.243000030517578, 0.0 ], [ -64.487998962402344, -53.338001251220703, 0.0 ], [ -64.325996398925781, -53.408000946044922, 0.0 ], [ -64.2030029296875, -53.408000946044922, 0.0 ], [ -64.0780029296875, -53.472999572753906, 0.0 ], [ -64.0469970703125, -53.514999389648438, 0.0 ], [ -64.0989990234375, -53.658000946044922, 0.0 ], [ -64.208000183105469, -53.784999847412109, 0.0 ], [ -64.152999877929688, -53.893001556396484, 0.0 ], [ -64.082000732421875, -54.001998901367188, 0.0 ], [ -63.839000701904297, -54.088001251220703, 0.0 ], [ -63.637001037597656, -54.125, 0.0 ], [ -63.455001831054688, -54.222999572753906, 0.0 ], [ -63.410999298095703, -54.327999114990234, 0.0 ], [ -63.410999298095703, -54.394001007080078, 0.0 ], [ -63.2760009765625, -54.430000305175781, 0.0 ], [ -63.172000885009766, -54.478000640869141, 0.0 ], [ -63.372001647949219, -54.541000366210938, 0.0 ], [ -63.417999267578125, -54.624000549316406, 0.0 ], [ -63.417999267578125, -54.726001739501953, 0.0 ], [ -63.522998809814453, -54.779998779296875, 0.0 ], [ -63.713001251220703, -54.832000732421875, 0.0 ], [ -63.884998321533203, -54.890998840332031, 0.0 ], [ -64.142997741699219, -54.916000366210938, 0.0 ], [ -64.166999816894531, -54.8489990234375, 0.0 ], [ -64.252998352050781, -54.861000061035156, 0.0 ], [ -64.380996704101562, -54.872001647949219, 0.0 ], [ -64.461997985839844, -54.881999969482422, 0.0 ], [ -64.543998718261719, -54.900001525878906, 0.0 ], [ -64.605003356933594, -54.916999816894531, 0.0 ], [ -64.665000915527344, -54.929000854492188, 0.0 ], [ -64.775001525878906, -54.930999755859375, 0.0 ], [ -64.833000183105469, -54.916999816894531, 0.0 ], [ -64.880996704101562, -54.886001586914062, 0.0 ], [ -64.9010009765625, -54.868999481201172, 0.0 ], [ -64.925003051757812, -54.847999572753906, 0.0 ], [ -64.970001220703125, -54.839000701904297, 0.0 ], [ -65.031997680664062, -54.851001739501953, 0.0 ], [ -65.108001708984375, -54.866001129150391, 0.0 ], [ -65.1510009765625, -54.882999420166016, 0.0 ], [ -65.202003479003906, -54.902999877929688, 0.0 ], [ -65.25, -54.893001556396484, 0.0 ], [ -65.299003601074219, -54.910999298095703, 0.0 ], [ -65.345001220703125, -54.933998107910156, 0.0 ], [ -65.413002014160156, -54.957000732421875, 0.0 ], [ -65.497001647949219, -54.988998413085938, 0.0 ], [ -65.558998107910156, -55.016998291015625, 0.0 ], [ -65.641998291015625, -55.030998229980469, 0.0 ], [ -65.725997924804688, -55.043998718261719, 0.0 ], [ -65.802001953125, -55.030998229980469, 0.0 ], [ -65.851997375488281, -55.013999938964844, 0.0 ], [ -65.904998779296875, -55.033000946044922, 0.0 ], [ -65.968002319335938, -55.043998718261719, 0.0 ], [ -66.024002075195312, -55.058998107910156, 0.0 ], [ -66.106002807617188, -55.042999267578125, 0.0 ], [ -66.1719970703125, -55.055000305175781, 0.0 ], [ -66.202003479003906, -55.076999664306641, 0.0 ], [ -66.234001159667969, -55.108001708984375, 0.0 ], [ -66.208999633789062, -55.161998748779297, 0.0 ], [ -66.194000244140625, -55.243999481201172, 0.0 ], [ -66.174003601074219, -55.307998657226562, 0.0 ], [ -66.204002380371094, -55.354000091552734, 0.0 ], [ -66.220001220703125, -55.397998809814453, 0.0 ], [ -66.262001037597656, -55.451000213623047, 0.0 ], [ -66.278999328613281, -55.479999542236328, 0.0 ], [ -66.299003601074219, -55.523998260498047, 0.0 ], [ -66.31500244140625, -55.5989990234375, 0.0 ], [ -66.336997985839844, -55.611000061035156, 0.0 ], [ -66.426002502441406, -55.623001098632812, 0.0 ], [ -66.474998474121094, -55.631000518798828, 0.0 ], [ -66.435997009277344, -55.658000946044922, 0.0 ], [ -66.459999084472656, -55.709999084472656, 0.0 ], [ -66.495002746582031, -55.735000610351562, 0.0 ], [ -66.540000915527344, -55.766998291015625, 0.0 ], [ -66.600997924804688, -55.821998596191406, 0.0 ], [ -66.672996520996094, -55.875, 0.0 ], [ -66.721000671386719, -55.902999877929688, 0.0 ], [ -66.764999389648438, -55.929000854492188, 0.0 ], [ -66.867996215820312, -55.980998992919922, 0.0 ] ] } }
]
}
