{
"type": "FeatureCollection",
"name": "1000mt",
"crs": { "type": "name", "properties": { "name": "urn:ogc:def:crs:OGC:1.3:CRS84" } },
"features": [
{ "type": "Feature", "properties": { "id": null, "Name": "Object ID 15", "description": null, "timestamp": null, "begin": null, "end": null, "altitudeMode": null, "tessellate": -1, "extrude": 0, "visibility": -1, "drawOrder": null, "icon": null }, "geometry": { "type": "LineString", "coordinates": [ [ -51.221000671386719, -34.118000030517571, 0.0 ], [ -51.404998779296875, -34.29100036621093, 0.0 ], [ -51.720001220703125, -34.393001556396477, 0.0 ], [ -51.782001495361328, -34.457000732421868, 0.0 ], [ -51.805999755859375, -34.558998107910149, 0.0 ], [ -51.805999755859375, -34.676998138427727, 0.0 ], [ -51.909000396728516, -34.741001129150384, 0.0 ], [ -51.984001159667969, -34.847999572753899, 0.0 ], [ -51.984001159667969, -34.951999664306634, 0.0 ], [ -51.869998931884766, -34.998001098632805, 0.0 ], [ -51.870998382568359, -35.081001281738274, 0.0 ], [ -52.055000305175781, -35.081001281738274, 0.0 ], [ -52.206001281738281, -35.164001464843743, 0.0 ], [ -52.360000610351562, -35.241001129150384, 0.0 ], [ -52.554000854492188, -35.338001251220696, 0.0 ], [ -52.554000854492188, -35.43799972534179, 0.0 ], [ -52.66400146484375, -35.555000305175774, 0.0 ], [ -52.749000549316406, -35.666999816894524, 0.0 ], [ -52.890998840332031, -35.770999908447259, 0.0 ], [ -53.015998840332031, -35.972999572753899, 0.0 ], [ -53.047000885009766, -36.110000610351555, 0.0 ], [ -53.296001434326172, -36.228000640869134, 0.0 ], [ -53.508998870849609, -36.316001892089837, 0.0 ], [ -53.578998565673828, -36.498001098632805, 0.0 ], [ -53.744998931884766, -36.625, 0.0 ], [ -53.716999053955078, -36.806999206542962, 0.0 ], [ -53.817001342773438, -36.958999633789055, 0.0 ], [ -53.990001678466797, -37.03699874877929, 0.0 ], [ -54.112998962402344, -37.202999114990227, 0.0 ], [ -54.183998107910156, -37.369998931884759, 0.0 ], [ -54.312999725341797, -37.581001281738274, 0.0 ], [ -54.398998260498047, -37.75199890136718, 0.0 ], [ -54.606998443603516, -37.78699874877929, 0.0 ], [ -54.833999633789062, -37.875999450683587, 0.0 ], [ -54.705001831054688, -37.951999664306634, 0.0 ], [ -54.639999389648438, -37.994998931884759, 0.0 ], [ -54.605998992919922, -38.084999084472649, 0.0 ], [ -54.680999755859375, -38.166999816894524, 0.0 ], [ -54.886001586914062, -38.279998779296868, 0.0 ], [ -54.701000213623047, -38.347999572753899, 0.0 ], [ -54.750999450683594, -38.478000640869134, 0.0 ], [ -54.805000305175781, -38.631999969482415, 0.0 ], [ -54.752998352050781, -38.766998291015618, 0.0 ], [ -54.599998474121094, -38.853000640869134, 0.0 ], [ -54.484001159667969, -38.941001892089837, 0.0 ], [ -54.626998901367188, -39.042999267578118, 0.0 ], [ -55.058998107910156, -39.042999267578118, 0.0 ], [ -55.304000854492188, -39.042999267578118, 0.0 ], [ -55.321998596191406, -39.12699890136718, 0.0 ], [ -55.268001556396484, -39.25, 0.0 ], [ -55.169998168945312, -39.368000030517571, 0.0 ], [ -55.169998168945312, -39.458999633789055, 0.0 ], [ -55.386001586914062, -39.516998291015618, 0.0 ], [ -55.481998443603516, -39.569999694824212, 0.0 ], [ -55.675998687744141, -39.726001739501946, 0.0 ], [ -55.729000091552734, -39.847999572753899, 0.0 ], [ -55.779998779296875, -39.950000762939446, 0.0 ], [ -55.833999633789062, -40.084999084472649, 0.0 ], [ -55.950000762939453, -40.182998657226555, 0.0 ], [ -56.104000091552734, -40.272998809814446, 0.0 ], [ -56.240001678466797, -40.349998474121087, 0.0 ], [ -56.328998565673828, -40.45500183105468, 0.0 ], [ -56.455001831054688, -40.52399826049804, 0.0 ], [ -56.650001525878906, -40.664001464843743, 0.0 ], [ -56.792999267578125, -40.777000427246087, 0.0 ], [ -56.886001586914062, -40.851001739501946, 0.0 ], [ -56.993999481201172, -40.851001739501946, 0.0 ], [ -56.945999145507812, -40.916999816894524, 0.0 ], [ -56.945999145507812, -41.002998352050774, 0.0 ], [ -57.053001403808594, -41.091999053955071, 0.0 ], [ -56.953998565673828, -41.159999847412102, 0.0 ], [ -56.953998565673828, -41.222000122070305, 0.0 ], [ -57.111000061035156, -41.222000122070305, 0.0 ], [ -57.208999633789062, -41.244998931884759, 0.0 ], [ -57.130001068115234, -41.291999816894524, 0.0 ], [ -57.040000915527344, -41.311000823974602, 0.0 ], [ -57.073001861572266, -41.383998870849602, 0.0 ], [ -57.187000274658203, -41.467998504638665, 0.0 ], [ -57.279998779296875, -41.569000244140618, 0.0 ], [ -57.458999633789062, -41.694999694824212, 0.0 ], [ -57.645999908447266, -41.801998138427727, 0.0 ], [ -57.762001037597656, -41.861999511718743, 0.0 ], [ -57.637001037597656, -41.930999755859368, 0.0 ], [ -57.497001647949219, -42.013999938964837, 0.0 ], [ -57.583000183105469, -42.071998596191399, 0.0 ], [ -57.7760009765625, -42.105998992919915, 0.0 ], [ -57.941001892089844, -42.206001281738274, 0.0 ], [ -58.112998962402344, -42.347000122070305, 0.0 ], [ -58.199001312255859, -42.519001007080071, 0.0 ], [ -58.252998352050781, -42.64899826049804, 0.0 ], [ -58.347000122070312, -42.706001281738274, 0.0 ], [ -58.397998809814453, -42.588001251220696, 0.0 ], [ -58.4739990234375, -42.525001525878899, 0.0 ], [ -58.505001068115234, -42.619998931884759, 0.0 ], [ -58.588001251220703, -42.66600036621093, 0.0 ], [ -58.699001312255859, -42.60200119018554, 0.0 ], [ -58.833000183105469, -42.57600021362304, 0.0 ], [ -58.772998809814453, -42.699001312255852, 0.0 ], [ -58.754001617431641, -42.801998138427727, 0.0 ], [ -58.754001617431641, -42.91600036621093, 0.0 ], [ -58.862998962402344, -43.000999450683587, 0.0 ], [ -58.917999267578125, -43.125, 0.0 ], [ -59.058998107910156, -43.22700119018554, 0.0 ], [ -59.178001403808594, -43.372001647949212, 0.0 ], [ -59.332000732421875, -43.520999908447259, 0.0 ], [ -59.5, -43.669998168945305, 0.0 ], [ -59.5, -43.854999542236321, 0.0 ], [ -59.523998260498047, -43.917999267578118, 0.0 ], [ -59.488998413085938, -44.03699874877929, 0.0 ], [ -59.508998870849609, -44.118999481201165, 0.0 ], [ -59.479000091552734, -44.171001434326165, 0.0 ], [ -59.458999633789062, -44.216999053955071, 0.0 ], [ -59.479000091552734, -44.254001617431634, 0.0 ], [ -59.501998901367188, -44.293998718261712, 0.0 ], [ -59.580001831054688, -44.327999114990227, 0.0 ], [ -59.646999359130859, -44.373001098632805, 0.0 ], [ -59.703998565673828, -44.407001495361321, 0.0 ], [ -59.683998107910156, -44.451999664306634, 0.0 ], [ -59.604999542236328, -44.467998504638665, 0.0 ], [ -59.519001007080078, -44.43799972534179, 0.0 ], [ -59.467998504638672, -44.423000335693352, 0.0 ], [ -59.451999664306641, -44.423000335693352, 0.0 ], [ -59.455001831054688, -44.480998992919915, 0.0 ], [ -59.515998840332031, -44.52399826049804, 0.0 ], [ -59.592998504638672, -44.569000244140618, 0.0 ], [ -59.66400146484375, -44.61399841308593, 0.0 ], [ -59.737998962402344, -44.657001495361321, 0.0 ], [ -59.755001068115234, -44.694999694824212, 0.0 ], [ -59.770999908447266, -44.730998992919915, 0.0 ], [ -59.765998840332031, -44.770000457763665, 0.0 ], [ -59.778999328613281, -44.832000732421868, 0.0 ], [ -59.737998962402344, -44.888999938964837, 0.0 ], [ -59.737998962402344, -44.95100021362304, 0.0 ], [ -59.751998901367188, -44.999000549316399, 0.0 ], [ -59.770000457763672, -45.047000885009759, 0.0 ], [ -59.783000946044922, -45.076999664306634, 0.0 ], [ -59.733001708984375, -45.104999542236321, 0.0 ], [ -59.675998687744141, -45.144001007080071, 0.0 ], [ -59.654998779296875, -45.20500183105468, 0.0 ], [ -59.646999359130859, -45.243000030517571, 0.0 ], [ -59.625, -45.265998840332024, 0.0 ], [ -59.570999145507812, -45.314998626708977, 0.0 ], [ -59.570999145507812, -45.368000030517571, 0.0 ], [ -59.550998687744141, -45.402000427246087, 0.0 ], [ -59.582000732421875, -45.451999664306634, 0.0 ], [ -59.616001129150391, -45.462001800537102, 0.0 ], [ -59.682998657226562, -45.44200134277343, 0.0 ], [ -59.708999633789062, -45.465999603271477, 0.0 ], [ -59.738998413085938, -45.506999969482415, 0.0 ], [ -59.770999908447266, -45.509998321533196, 0.0 ], [ -59.721000671386719, -45.553001403808587, 0.0 ], [ -59.659000396728516, -45.562000274658196, 0.0 ], [ -59.597000122070312, -45.57600021362304, 0.0 ], [ -59.550998687744141, -45.587001800537102, 0.0 ], [ -59.570999145507812, -45.620998382568352, 0.0 ], [ -59.629001617431641, -45.654998779296868, 0.0 ], [ -59.683998107910156, -45.687000274658196, 0.0 ], [ -59.699001312255859, -45.722999572753899, 0.0 ], [ -59.590000152587891, -45.763000488281243, 0.0 ], [ -59.564998626708984, -45.806999206542962, 0.0 ], [ -59.581001281738281, -45.860000610351555, 0.0 ], [ -59.634998321533203, -45.880001068115227, 0.0 ], [ -59.714000701904297, -45.903999328613274, 0.0 ], [ -59.695999145507812, -45.95100021362304, 0.0 ], [ -59.679000854492188, -46.013000488281243, 0.0 ], [ -59.661998748779297, -46.071998596191399, 0.0 ], [ -59.631000518798828, -46.175998687744134, 0.0 ], [ -59.557998657226562, -46.283000946044915, 0.0 ], [ -59.515998840332031, -46.373001098632805, 0.0 ], [ -59.522998809814453, -46.509998321533196, 0.0 ], [ -59.456001281738281, -46.67900085449218, 0.0 ], [ -59.430000305175781, -46.771999359130852, 0.0 ], [ -59.465000152587891, -46.82600021362304, 0.0 ], [ -59.512001037597656, -46.870998382568352, 0.0 ], [ -59.550998687744141, -46.89899826049804, 0.0 ], [ -59.577999114990234, -46.907001495361321, 0.0 ], [ -59.615001678466797, -46.965999603271477, 0.0 ], [ -59.604999542236328, -46.998001098632805, 0.0 ], [ -59.577999114990234, -47.028999328613274, 0.0 ], [ -59.541000366210938, -47.071998596191399, 0.0 ], [ -59.541000366210938, -47.118999481201165, 0.0 ], [ -59.514999389648438, -47.17499923706054, 0.0 ], [ -59.512001037597656, -47.234001159667962, 0.0 ], [ -59.51300048828125, -47.306999206542962, 0.0 ], [ -59.48699951171875, -47.437000274658196, 0.0 ], [ -59.484001159667969, -47.551998138427727, 0.0 ], [ -59.470001220703125, -47.645000457763665, 0.0 ], [ -59.444999694824219, -47.744998931884759, 0.0 ], [ -59.439998626708984, -47.831001281738274, 0.0 ], [ -59.396999359130859, -47.936000823974602, 0.0 ], [ -59.332000732421875, -48.032001495361328, 0.0 ], [ -59.287998199462891, -48.127998352050781, 0.0 ], [ -59.252998352050781, -48.202999114990234, 0.0 ], [ -59.189998626708984, -48.255001068115234, 0.0 ], [ -59.127998352050781, -48.321998596191406, 0.0 ], [ -59.083999633789062, -48.380001068115234, 0.0 ], [ -59.018001556396484, -48.430000305175781, 0.0 ], [ -58.96099853515625, -48.486000061035156, 0.0 ], [ -58.930000305175781, -48.536998748779297, 0.0 ], [ -58.902000427246094, -48.592998504638672, 0.0 ], [ -58.817001342773438, -48.639999389648438, 0.0 ], [ -58.740001678466797, -48.661998748779297, 0.0 ], [ -58.695999145507812, -48.672000885009766, 0.0 ], [ -58.582000732421875, -48.659000396728516, 0.0 ], [ -58.466999053955078, -48.645000457763672, 0.0 ], [ -58.345001220703125, -48.632999420166016, 0.0 ], [ -58.257999420166016, -48.652999877929688, 0.0 ], [ -58.129001617431641, -48.686000823974609, 0.0 ], [ -57.972000122070312, -48.686000823974609, 0.0 ], [ -57.847000122070312, -48.701000213623047, 0.0 ], [ -57.679000854492188, -48.701000213623047, 0.0 ], [ -57.576000213623047, -48.7239990234375, 0.0 ], [ -57.379001617431641, -48.747001647949219, 0.0 ], [ -57.224998474121094, -48.773998260498047, 0.0 ], [ -57.103000640869141, -48.818000793457031, 0.0 ], [ -56.974998474121094, -48.805999755859375, 0.0 ], [ -56.83599853515625, -48.824001312255859, 0.0 ], [ -56.7239990234375, -48.807998657226562, 0.0 ], [ -56.727001190185547, -48.833000183105469, 0.0 ], [ -56.658000946044922, -48.856998443603516, 0.0 ], [ -56.625999450683594, -48.912998199462891, 0.0 ], [ -56.550998687744141, -48.952999114990234, 0.0 ], [ -56.48699951171875, -48.995998382568359, 0.0 ], [ -56.404998779296875, -49.041999816894531, 0.0 ], [ -56.312999725341797, -49.115001678466797, 0.0 ], [ -56.224998474121094, -49.178001403808594, 0.0 ], [ -56.162998199462891, -49.221000671386719, 0.0 ], [ -56.122001647949219, -49.241001129150391, 0.0 ], [ -56.066001892089844, -49.241001129150391, 0.0 ], [ -55.983001708984375, -49.240001678466797, 0.0 ], [ -55.916999816894531, -49.229000091552734, 0.0 ], [ -55.862998962402344, -49.229000091552734, 0.0 ], [ -55.807998657226562, -49.229000091552734, 0.0 ], [ -55.768001556396484, -49.240001678466797, 0.0 ], [ -55.716999053955078, -49.249000549316406, 0.0 ], [ -55.678001403808594, -49.279998779296875, 0.0 ], [ -55.619998931884766, -49.307998657226562, 0.0 ], [ -55.613998413085938, -49.356998443603516, 0.0 ], [ -55.58599853515625, -49.416000366210938, 0.0 ], [ -55.534999847412109, -49.485000610351562, 0.0 ], [ -55.512001037597656, -49.548000335693359, 0.0 ], [ -55.527000427246094, -49.61199951171875, 0.0 ], [ -55.527000427246094, -49.686000823974609, 0.0 ], [ -55.527000427246094, -49.745998382568359, 0.0 ], [ -55.501998901367188, -49.784999847412109, 0.0 ], [ -55.501998901367188, -49.842998504638672, 0.0 ], [ -55.478000640869141, -49.872001647949219, 0.0 ], [ -55.459999084472656, -49.888999938964844, 0.0 ], [ -55.459999084472656, -49.904998779296875, 0.0 ], [ -55.437000274658203, -49.926998138427734, 0.0 ], [ -55.465000152587891, -49.949001312255859, 0.0 ], [ -55.465000152587891, -49.963001251220703, 0.0 ], [ -55.393001556396484, -49.967998504638672, 0.0 ], [ -55.345001220703125, -50.015998840332031, 0.0 ], [ -55.296001434326172, -50.096000671386719, 0.0 ], [ -55.236000061035156, -50.147998809814453, 0.0 ], [ -55.202999114990234, -50.181999206542969, 0.0 ], [ -55.148998260498047, -50.229999542236328, 0.0 ], [ -55.099998474121094, -50.268001556396484, 0.0 ], [ -55.099998474121094, -50.320999145507812, 0.0 ], [ -55.127998352050781, -50.342998504638672, 0.0 ], [ -55.172000885009766, -50.404998779296875, 0.0 ], [ -55.213001251220703, -50.469001770019531, 0.0 ], [ -55.254001617431641, -50.493000030517578, 0.0 ], [ -55.326999664306641, -50.516998291015625, 0.0 ], [ -55.376998901367188, -50.547000885009766, 0.0 ], [ -55.444000244140625, -50.576000213623047, 0.0 ], [ -55.530998229980469, -50.610000610351562, 0.0 ], [ -55.587001800537109, -50.659000396728516, 0.0 ], [ -55.636001586914062, -50.693000793457031, 0.0 ], [ -55.680000305175781, -50.724998474121094, 0.0 ], [ -55.743000030517578, -50.756000518798828, 0.0 ], [ -55.800998687744141, -50.78900146484375, 0.0 ], [ -55.827999114990234, -50.819999694824219, 0.0 ], [ -55.853000640869141, -50.861000061035156, 0.0 ], [ -55.807998657226562, -50.972999572753906, 0.0 ], [ -55.751998901367188, -51.0, 0.0 ], [ -55.699001312255859, -51.034999847412109, 0.0 ], [ -55.715000152587891, -51.078998565673828, 0.0 ], [ -55.743000030517578, -51.123001098632812, 0.0 ], [ -55.798000335693359, -51.159000396728516, 0.0 ], [ -55.840999603271484, -51.203998565673828, 0.0 ], [ -55.889999389648438, -51.261001586914062, 0.0 ], [ -55.918998718261719, -51.311000823974609, 0.0 ], [ -55.972000122070312, -51.341999053955078, 0.0 ], [ -55.993000030517578, -51.396999359130859, 0.0 ], [ -56.009998321533203, -51.441001892089844, 0.0 ], [ -56.027999877929688, -51.478000640869141, 0.0 ], [ -56.0, -51.525001525878906, 0.0 ], [ -55.965999603271484, -51.560001373291016, 0.0 ], [ -55.984001159667969, -51.599998474121094, 0.0 ], [ -56.021999359130859, -51.6510009765625, 0.0 ], [ -56.118000030517578, -51.691001892089844, 0.0 ], [ -56.157001495361328, -51.727001190185547, 0.0 ], [ -56.138999938964844, -51.762001037597656, 0.0 ], [ -56.109001159667969, -51.821998596191406, 0.0 ], [ -56.092998504638672, -51.86199951171875, 0.0 ], [ -56.148998260498047, -51.904998779296875, 0.0 ], [ -56.245998382568359, -51.931999206542969, 0.0 ], [ -56.333999633789062, -51.948001861572266, 0.0 ], [ -56.441001892089844, -51.965999603271484, 0.0 ], [ -56.469001770019531, -51.997001647949219, 0.0 ], [ -56.48699951171875, -52.014999389648438, 0.0 ], [ -56.465000152587891, -52.043998718261719, 0.0 ], [ -56.443000793457031, -52.062000274658203, 0.0 ], [ -56.478000640869141, -52.097000122070312, 0.0 ], [ -56.505001068115234, -52.118999481201172, 0.0 ], [ -56.551998138427734, -52.173000335693359, 0.0 ], [ -56.601001739501953, -52.224998474121094, 0.0 ], [ -56.625, -52.245998382568359, 0.0 ], [ -56.678001403808594, -52.284000396728516, 0.0 ], [ -56.705001831054688, -52.316001892089844, 0.0 ], [ -56.751998901367188, -52.375, 0.0 ], [ -56.798999786376953, -52.428001403808594, 0.0 ], [ -56.820999145507812, -52.472000122070312, 0.0 ], [ -56.773998260498047, -52.506000518798828, 0.0 ], [ -56.747001647949219, -52.550998687744141, 0.0 ], [ -56.794998168945312, -52.584999084472656, 0.0 ], [ -56.847999572753906, -52.636001586914062, 0.0 ], [ -56.890998840332031, -52.672000885009766, 0.0 ], [ -56.932998657226562, -52.715999603271484, 0.0 ], [ -56.958000183105469, -52.749000549316406, 0.0 ], [ -57.004001617431641, -52.808998107910156, 0.0 ], [ -57.055999755859375, -52.873001098632812, 0.0 ], [ -57.140998840332031, -52.941001892089844, 0.0 ], [ -57.159000396728516, -52.935001373291016, 0.0 ], [ -57.198001861572266, -52.945999145507812, 0.0 ], [ -57.230998992919922, -52.958999633789062, 0.0 ], [ -57.286998748779297, -52.958999633789062, 0.0 ], [ -57.319999694824219, -52.98699951171875, 0.0 ], [ -57.363998413085938, -53.011001586914062, 0.0 ], [ -57.48699951171875, -53.034999847412109, 0.0 ], [ -57.534999847412109, -53.062000274658203, 0.0 ], [ -57.591999053955078, -53.077999114990234, 0.0 ], [ -57.625999450683594, -53.106998443603516, 0.0 ], [ -57.665000915527344, -53.153999328613281, 0.0 ], [ -57.707000732421875, -53.193000793457031, 0.0 ], [ -57.745998382568359, -53.240001678466797, 0.0 ], [ -57.771999359130859, -53.269001007080078, 0.0 ], [ -57.798999786376953, -53.340999603271484, 0.0 ], [ -57.826999664306641, -53.396999359130859, 0.0 ], [ -57.875999450683594, -53.423999786376953, 0.0 ], [ -57.933998107910156, -53.398998260498047, 0.0 ], [ -58.005001068115234, -53.347999572753906, 0.0 ], [ -58.053001403808594, -53.305999755859375, 0.0 ], [ -58.106998443603516, -53.277000427246094, 0.0 ], [ -58.183998107910156, -53.252998352050781, 0.0 ], [ -58.228000640869141, -53.284000396728516, 0.0 ], [ -58.313999176025391, -53.293998718261719, 0.0 ], [ -58.3489990234375, -53.299999237060547, 0.0 ], [ -58.421001434326172, -53.312000274658203, 0.0 ], [ -58.504001617431641, -53.334999084472656, 0.0 ], [ -58.575000762939453, -53.360000610351562, 0.0 ], [ -58.687999725341797, -53.377998352050781, 0.0 ], [ -58.73699951171875, -53.391998291015625, 0.0 ], [ -58.785999298095703, -53.386001586914062, 0.0 ], [ -58.844001770019531, -53.360000610351562, 0.0 ], [ -58.916999816894531, -53.376998901367188, 0.0 ], [ -59.01300048828125, -53.362998962402344, 0.0 ], [ -59.077999114990234, -53.376998901367188, 0.0 ], [ -59.158000946044922, -53.351001739501953, 0.0 ], [ -59.214000701904297, -53.380001068115234, 0.0 ], [ -59.307998657226562, -53.390998840332031, 0.0 ], [ -59.394001007080078, -53.379001617431641, 0.0 ], [ -59.466999053955078, -53.393001556396484, 0.0 ], [ -59.528999328613281, -53.403999328613281, 0.0 ], [ -59.610000610351562, -53.369998931884766, 0.0 ], [ -59.673000335693359, -53.380001068115234, 0.0 ], [ -59.769001007080078, -53.390998840332031, 0.0 ], [ -59.854999542236328, -53.404998779296875, 0.0 ], [ -59.903999328613281, -53.435001373291016, 0.0 ], [ -59.932998657226562, -53.466999053955078, 0.0 ], [ -59.958999633789062, -53.487998962402344, 0.0 ], [ -59.980998992919922, -53.516998291015625, 0.0 ], [ -59.963001251220703, -53.546001434326172, 0.0 ], [ -60.013999938964844, -53.573001861572266, 0.0 ], [ -60.041000366210938, -53.597999572753906, 0.0 ], [ -60.074001312255859, -53.61199951171875, 0.0 ], [ -60.118999481201172, -53.638999938964844, 0.0 ], [ -60.129001617431641, -53.654998779296875, 0.0 ], [ -60.106998443603516, -53.680999755859375, 0.0 ], [ -60.063999176025391, -53.701000213623047, 0.0 ], [ -60.008998870849609, -53.702999114990234, 0.0 ], [ -59.943000793457031, -53.716999053955078, 0.0 ], [ -59.863998413085938, -53.730998992919922, 0.0 ], [ -59.813999176025391, -53.765998840332031, 0.0 ], [ -59.735000610351562, -53.796001434326172, 0.0 ], [ -59.705001831054688, -53.805999755859375, 0.0 ], [ -59.627998352050781, -53.793998718261719, 0.0 ], [ -59.562000274658203, -53.805999755859375, 0.0 ], [ -59.486000061035156, -53.785999298095703, 0.0 ], [ -59.389999389648438, -53.777999877929688, 0.0 ], [ -59.307998657226562, -53.784999847412109, 0.0 ], [ -59.233001708984375, -53.715999603271484, 0.0 ], [ -59.166000366210938, -53.715999603271484, 0.0 ], [ -59.0, -53.733001708984375, 0.0 ], [ -58.916000366210938, -53.765998840332031, 0.0 ], [ -58.872001647949219, -53.769001007080078, 0.0 ], [ -58.86199951171875, -53.777999877929688, 0.0 ], [ -58.76300048828125, -53.827999114990234, 0.0 ], [ -58.698001861572266, -53.840999603271484, 0.0 ], [ -58.636001586914062, -53.825000762939453, 0.0 ], [ -58.569999694824219, -53.810001373291016, 0.0 ], [ -58.495998382568359, -53.821998596191406, 0.0 ], [ -58.436000823974609, -53.801998138427734, 0.0 ], [ -58.375999450683594, -53.786998748779297, 0.0 ], [ -58.328998565673828, -53.766998291015625, 0.0 ], [ -58.250999450683594, -53.778999328613281, 0.0 ], [ -58.173999786376953, -53.793998718261719, 0.0 ], [ -58.119998931884766, -53.818000793457031, 0.0 ], [ -58.041999816894531, -53.870998382568359, 0.0 ], [ -57.978000640869141, -53.861000061035156, 0.0 ], [ -57.926998138427734, -53.846000671386719, 0.0 ], [ -57.855998992919922, -53.837001800537109, 0.0 ], [ -57.791000366210938, -53.8489990234375, 0.0 ], [ -57.805000305175781, -53.895000457763672, 0.0 ], [ -57.782001495361328, -53.918998718261719, 0.0 ], [ -57.685001373291016, -53.964000701904297, 0.0 ], [ -57.632999420166016, -53.994998931884766, 0.0 ], [ -57.582000732421875, -54.021999359130859, 0.0 ], [ -57.490001678466797, -54.050998687744141, 0.0 ], [ -57.372001647949219, -54.050998687744141, 0.0 ], [ -57.283000946044922, -54.078998565673828, 0.0 ], [ -57.240001678466797, -54.108001708984375, 0.0 ], [ -57.104000091552734, -54.146999359130859, 0.0 ], [ -56.908000946044922, -54.200000762939453, 0.0 ], [ -56.826000213623047, -54.21099853515625, 0.0 ], [ -56.707000732421875, -54.176998138427734, 0.0 ], [ -56.605998992919922, -54.1510009765625, 0.0 ], [ -56.519001007080078, -54.116001129150391, 0.0 ], [ -56.444999694824219, -54.127998352050781, 0.0 ], [ -56.320999145507812, -54.157001495361328, 0.0 ], [ -56.250999450683594, -54.186000823974609, 0.0 ], [ -56.166000366210938, -54.216999053955078, 0.0 ], [ -56.014999389648438, -54.242000579833984, 0.0 ], [ -55.818000793457031, -54.317001342773438, 0.0 ], [ -55.791999816894531, -54.375999450683594, 0.0 ], [ -55.744998931884766, -54.411998748779297, 0.0 ], [ -55.590000152587891, -54.451999664306641, 0.0 ], [ -55.534999847412109, -54.481998443603516, 0.0 ], [ -55.462001800537109, -54.516998291015625, 0.0 ], [ -55.326999664306641, -54.555999755859375, 0.0 ], [ -55.248001098632812, -54.583999633789062, 0.0 ], [ -55.33599853515625, -54.638999938964844, 0.0 ], [ -55.421001434326172, -54.673999786376953, 0.0 ], [ -55.51300048828125, -54.716999053955078, 0.0 ], [ -55.612998962402344, -54.745998382568359, 0.0 ], [ -55.680000305175781, -54.772998809814453, 0.0 ], [ -55.740001678466797, -54.811000823974609, 0.0 ], [ -55.793998718261719, -54.856998443603516, 0.0 ], [ -55.842998504638672, -54.911998748779297, 0.0 ], [ -55.904998779296875, -54.951000213623047, 0.0 ], [ -55.902999877929688, -54.918998718261719, 0.0 ], [ -55.956001281738281, -54.854999542236328, 0.0 ], [ -56.043998718261719, -54.833999633789062, 0.0 ], [ -56.090000152587891, -54.838001251220703, 0.0 ], [ -56.146999359130859, -54.851001739501953, 0.0 ], [ -56.240001678466797, -54.83599853515625, 0.0 ], [ -56.297000885009766, -54.866001129150391, 0.0 ], [ -56.351001739501953, -54.922000885009766, 0.0 ], [ -56.390998840332031, -54.946998596191406, 0.0 ], [ -56.431999206542969, -54.979000091552734, 0.0 ], [ -56.464000701904297, -55.037998199462891, 0.0 ], [ -56.408000946044922, -55.071998596191406, 0.0 ], [ -56.451000213623047, -55.099998474121094, 0.0 ], [ -56.416000366210938, -55.130001068115234, 0.0 ], [ -56.501998901367188, -55.145000457763672, 0.0 ], [ -56.604000091552734, -55.147998809814453, 0.0 ], [ -56.655998229980469, -55.106998443603516, 0.0 ], [ -56.757999420166016, -55.077999114990234, 0.0 ], [ -56.844001770019531, -55.089000701904297, 0.0 ], [ -56.952999114990234, -55.099998474121094, 0.0 ], [ -57.004001617431641, -55.124000549316406, 0.0 ], [ -57.034000396728516, -55.145000457763672, 0.0 ], [ -57.118999481201172, -55.132999420166016, 0.0 ], [ -57.229000091552734, -55.108001708984375, 0.0 ], [ -57.330001831054688, -55.087001800537109, 0.0 ], [ -57.417999267578125, -55.064998626708984, 0.0 ], [ -57.520999908447266, -55.034999847412109, 0.0 ], [ -57.618999481201172, -55.009998321533203, 0.0 ], [ -57.713001251220703, -55.028999328613281, 0.0 ], [ -57.810001373291016, -55.041999816894531, 0.0 ], [ -57.904998779296875, -55.073001861572266, 0.0 ], [ -58.014999389648438, -55.089000701904297, 0.0 ], [ -58.139999389648438, -55.069999694824219, 0.0 ], [ -58.257999420166016, -55.046001434326172, 0.0 ], [ -58.398998260498047, -55.025001525878906, 0.0 ], [ -58.508998870849609, -54.994998931884766, 0.0 ], [ -58.564998626708984, -54.944999694824219, 0.0 ], [ -58.632999420166016, -54.904998779296875, 0.0 ], [ -58.683998107910156, -54.856998443603516, 0.0 ], [ -58.825000762939453, -54.856998443603516, 0.0 ], [ -59.005001068115234, -54.877998352050781, 0.0 ], [ -59.0, -54.88330078125, 0.0 ], [ -59.200000762939453, -54.924999237060547, 0.0 ], [ -59.400001525878906, -54.933300018310547, 0.0 ], [ -59.599998474121094, -54.950000762939453, 0.0 ], [ -59.799999237060547, -54.958301544189453, 0.0 ], [ -60.0, -54.966701507568359, 0.0 ], [ -60.200000762939453, -54.900001525878906, 0.0 ], [ -60.400001525878906, -54.933300018310547, 0.0 ], [ -60.599998474121094, -54.924999237060547, 0.0 ], [ -60.799999237060547, -54.916698455810547, 0.0 ], [ -61.0, -54.88330078125, 0.0 ], [ -61.200000762939453, -54.883499145507812, 0.0 ], [ -61.400001525878906, -54.834999084472656, 0.0 ], [ -61.599998474121094, -54.816699981689453, 0.0 ], [ -61.799999237060547, -54.766700744628906, 0.0 ], [ -62.0, -54.799999237060547, 0.0 ], [ -62.200000762939453, -54.791698455810547, 0.0 ], [ -62.400001525878906, -54.799999237060547, 0.0 ], [ -62.599998474121094, -54.799999237060547, 0.0 ], [ -62.799999237060547, -54.849998474121094, 0.0 ], [ -63.0, -54.88330078125, 0.0 ], [ -63.200000762939453, -54.833301544189453, 0.0 ], [ -63.400001525878906, -54.88330078125, 0.0 ], [ -63.599998474121094, -54.900001525878906, 0.0 ], [ -63.799999237060547, -54.933300018310547, 0.0 ], [ -64.0, -55.016700744628906, 0.0 ], [ -64.199996948242188, -55.033298492431641, 0.0 ], [ -64.400001525878906, -55.016700744628906, 0.0 ], [ -64.599998474121094, -55.016700744628906, 0.0 ], [ -64.800003051757812, -55.083301544189453, 0.0 ], [ -65.0, -55.150001525878906, 0.0 ], [ -65.199996948242188, -55.099998474121094, 0.0 ], [ -65.400001525878906, -55.283298492431641, 0.0 ], [ -65.599998474121094, -55.25, 0.0 ], [ -65.800003051757812, -55.266700744628906, 0.0 ], [ -66.0, -55.099998474121094, 0.0 ], [ -66.208999633789062, -55.161998748779297, 0.0 ], [ -66.194000244140625, -55.243999481201172, 0.0 ], [ -66.174003601074219, -55.307998657226562, 0.0 ], [ -66.204002380371094, -55.354000091552734, 0.0 ], [ -66.220001220703125, -55.397998809814453, 0.0 ], [ -66.262001037597656, -55.451000213623047, 0.0 ], [ -66.278999328613281, -55.479999542236328, 0.0 ], [ -66.299003601074219, -55.523998260498047, 0.0 ], [ -66.31500244140625, -55.5989990234375, 0.0 ], [ -66.336997985839844, -55.611000061035156, 0.0 ], [ -66.426002502441406, -55.623001098632812, 0.0 ], [ -66.474998474121094, -55.631000518798828, 0.0 ], [ -66.435997009277344, -55.658000946044922, 0.0 ], [ -66.459999084472656, -55.709999084472656, 0.0 ], [ -66.495002746582031, -55.735000610351562, 0.0 ], [ -66.540000915527344, -55.766998291015625, 0.0 ], [ -66.600997924804688, -55.821998596191406, 0.0 ], [ -66.672996520996094, -55.875, 0.0 ], [ -66.721000671386719, -55.902999877929688, 0.0 ], [ -66.764999389648438, -55.929000854492188, 0.0 ], [ -66.867996215820312, -55.980998992919922, 0.0 ] ] } }
]
}
